{
"type": "FeatureCollection",
"name": "fdp",
"crs": { "type": "name", "properties": { "name": "urn:ogc:def:crs:EPSG::3111" } },
"features": [
{ "type": "Feature", "properties": { }, "geometry": { "type": "MultiLineString", "coordinates": [ [ [ 2513705.68697393592447, 2381522.840488201472908 ], [ 2513793.054143301211298, 2381522.840488201472908 ], [ 2513861.006453551817685, 2381513.132937496062368 ], [ 2514288.134971937164664, 2381445.180082556791604 ], [ 2514938.535280188079923, 2381348.104373234789819 ], [ 2515365.664000805467367, 2381280.151316029485315 ], [ 2515501.568419074174017, 2381251.028663912322372 ], [ 2515618.057978228200227, 2381241.321113206911832 ], [ 2515656.887898690067232, 2381231.613562501501292 ], [ 2515870.45215788250789, 2381202.49070811830461 ], [ 2515889.867219229228795, 2381192.78315741289407 ], [ 2515899.574547670781612, 2381192.78315741289407 ], [ 2515928.696937459520996, 2381192.78315741289407 ], [ 2515938.404468132648617, 2381192.78315741289407 ], [ 2515977.234388594515622, 2381183.07560670748353 ], [ 2515996.649247709661722, 2381183.07560670748353 ], [ 2516035.479168171528727, 2381173.368056001607329 ], [ 2516482.02274790359661, 2381105.414998796302825 ], [ 2516530.559996807482094, 2381095.707448090892285 ], [ 2517093.593135693110526, 2381008.33928947430104 ], [ 2517210.082694847136736, 2380988.924188063014299 ] ], [ [ 2510919.643871526699513, 2377688.35047564515844 ], [ 2510919.643871526699513, 2377727.180880733765662 ], [ 2510919.643871526699513, 2377775.718634261749685 ], [ 2510909.93634085310623, 2377795.133735673036426 ], [ 2510909.93634085310623, 2377843.671691467054188 ], [ 2510909.93634085310623, 2377901.916995700448751 ], [ 2510909.93634085310623, 2377940.747400789055973 ], [ 2510909.93634085310623, 2377969.870052905753255 ], [ 2510909.93634085310623, 2377998.992705022450536 ], [ 2510909.93634085310623, 2378018.407806433737278 ], [ 2510909.93634085310623, 2378086.360863639041781 ], [ 2510909.93634085310623, 2378154.313920844346285 ], [ 2510900.229012411553413, 2378299.927383694332093 ], [ 2510900.229012411553413, 2378348.465339488349855 ], [ 2510890.52148173796013, 2378416.41819442762062 ], [ 2510900.229012411553413, 2378445.54104881035164 ], [ 2510900.229012411553413, 2378503.786353044211864 ], [ 2510890.52148173796013, 2378562.031859543640167 ], [ 2510890.52148173796013, 2378591.154511660337448 ], [ 2510880.813951064832509, 2378629.984714482910931 ], [ 2510880.813951064832509, 2378649.400018160231411 ], [ 2510871.106622623279691, 2378717.352873099502176 ], [ 2510871.106622623279691, 2378756.183278187643737 ], [ 2510871.106622623279691, 2378785.305930304806679 ], [ 2510861.399091949686408, 2378853.258785244077444 ], [ 2510851.691561276093125, 2378911.504291743505746 ], [ 2510841.984030602965504, 2379008.580001065507531 ], [ 2510832.276702161412686, 2379057.117754593491554 ], [ 2510822.569171487819403, 2379105.655710387509316 ], [ 2510822.569171487819403, 2379134.778362504672259 ], [ 2510812.861640814226121, 2379183.316318298690021 ], [ 2510812.861640814226121, 2379212.438970415387303 ], [ 2510803.154312372673303, 2379231.854071826674044 ], [ 2510803.154312372673303, 2379299.807129031978548 ], [ 2510803.154312372673303, 2379319.222230442799628 ], [ 2510803.154312372673303, 2379338.637331854086369 ], [ 2510793.446781699545681, 2379348.344882559962571 ], [ 2510793.446781699545681, 2379358.052433265373111 ], [ 2510793.446781699545681, 2379396.882838353980333 ], [ 2510783.739251025952399, 2379416.297939765267074 ], [ 2510774.031922584399581, 2379435.713041176088154 ], [ 2510774.031922584399581, 2379503.666098381392658 ], [ 2510764.324391910806298, 2379561.911402615252882 ], [ 2510764.324391910806298, 2379571.618953320663422 ], [ 2510774.031922584399581, 2379571.618953320663422 ], [ 2510783.739251025952399, 2379571.618953320663422 ], [ 2510822.569171487819403, 2379581.326706292107701 ], [ 2510851.691561276093125, 2379591.034256997983903 ], [ 2510851.691561276093125, 2379600.741807703394443 ], [ 2510861.399091949686408, 2379600.741807703394443 ], [ 2510871.106622623279691, 2379600.741807703394443 ], [ 2510890.52148173796013, 2379600.741807703394443 ], [ 2510909.93634085310623, 2379610.449358409270644 ], [ 2510919.643871526699513, 2379610.449358409270644 ], [ 2510871.106622623279691, 2379872.553631992544979 ], [ 2510900.229012411553413, 2379882.261384963989258 ], [ 2510919.643871526699513, 2379891.968935669865459 ], [ 2510929.351402199827135, 2379891.968935669865459 ], [ 2510948.766261314973235, 2379901.676486375275999 ], [ 2510977.888651103712618, 2379911.384037081152201 ], [ 2510997.303510218393058, 2379921.091587786562741 ], [ 2511055.548492027446628, 2379930.799138491973281 ], [ 2511113.793271603994071, 2379940.506689197849482 ], [ 2511133.208130719140172, 2379950.214239903260022 ], [ 2511142.915661392733455, 2379940.506689197849482 ], [ 2511172.038051181007177, 2379930.799138491973281 ], [ 2511172.038051181007177, 2379940.506689197849482 ], [ 2511181.745581854600459, 2379940.506689197849482 ], [ 2511191.452910296153277, 2379940.506689197849482 ], [ 2511191.452910296153277, 2379950.214239903260022 ], [ 2511201.16044096974656, 2379950.214239903260022 ], [ 2511210.867971642874181, 2379950.214239903260022 ], [ 2511220.575300084426999, 2379940.506689197849482 ], [ 2511259.405220546294004, 2379921.091587786562741 ], [ 2511288.527610335033387, 2379891.968935669865459 ], [ 2511472.969479739200324, 2379765.770371964666992 ], [ 2511521.50693087419495, 2379726.940169142559171 ], [ 2511531.214259316213429, 2379726.940169142559171 ], [ 2511540.92178998934105, 2379717.232618436682969 ], [ 2511550.629320662934333, 2379717.232618436682969 ], [ 2511560.336649104487151, 2379717.232618436682969 ], [ 2511570.044179778080434, 2379717.232618436682969 ], [ 2511579.751710451208055, 2379717.232618436682969 ], [ 2511589.459038892760873, 2379717.232618436682969 ], [ 2511599.166569566354156, 2379717.232618436682969 ], [ 2511608.874100239947438, 2379726.940169142559171 ], [ 2511705.948800278361887, 2379756.062821259256452 ], [ 2511725.363659393507987, 2379775.477922670543194 ], [ 2511744.778518508654088, 2379785.185675641987473 ], [ 2511938.927918586414307, 2379862.846081287134439 ], [ 2511948.635449259541929, 2379862.846081287134439 ], [ 2511958.342777701094747, 2379862.846081287134439 ], [ 2512084.53986752871424, 2379824.015878464560956 ], [ 2512152.492177778854966, 2379794.893226347863674 ], [ 2512162.199708452448249, 2379794.893226347863674 ], [ 2512171.90723912557587, 2379794.893226347863674 ], [ 2512414.593888106755912, 2379862.846081287134439 ], [ 2512424.30121654830873, 2379862.846081287134439 ], [ 2512637.865677972789854, 2379833.723429169971496 ], [ 2512948.504637204110622, 2379785.185675641987473 ], [ 2512958.21196564566344, 2379775.477922670543194 ], [ 2512967.919496319256723, 2379775.477922670543194 ], [ 2512977.627026992850006, 2379775.477922670543194 ], [ 2512987.334355434402823, 2379775.477922670543194 ], [ 2512987.334355434402823, 2379765.770371964666992 ], [ 2512997.041886107996106, 2379765.770371964666992 ], [ 2513006.749416781123728, 2379765.770371964666992 ], [ 2513035.871806569863111, 2379756.062821259256452 ], [ 2513064.994196358136833, 2379756.062821259256452 ], [ 2513055.28666568454355, 2379853.138530581258237 ], [ 2513074.701524799689651, 2380095.827905019279569 ], [ 2513171.77622483856976, 2380678.281958685722202 ], [ 2513191.191286185290664, 2380678.281958685722202 ], [ 2513220.313675974030048, 2380668.574407980311662 ], [ 2513259.143394203856587, 2380668.574407980311662 ], [ 2513482.415184069890529, 2380629.744205157738179 ], [ 2513569.782353435177356, 2380610.329103746451437 ], [ 2513676.564584147650748, 2381318.981518851593137 ], [ 2513686.27211482077837, 2381338.396822528913617 ], [ 2513686.27211482077837, 2381357.811923940200359 ], [ 2513705.68697393592447, 2381522.840488201472908 ] ] ] } },
{ "type": "Feature", "properties": { }, "geometry": { "type": "MultiLineString", "coordinates": [ [ [ 2512453.423606337048113, 2396627.819321492221206 ], [ 2512472.838667683769017, 2396627.819321492221206 ], [ 2512472.838667683769017, 2396647.234422903042287 ], [ 2512501.961057472042739, 2396821.970537870191038 ], [ 2512540.790977933909744, 2397122.905216542072594 ], [ 2512560.205837049055845, 2397171.443172336090356 ], [ 2512569.913367722649127, 2397229.688476569484919 ], [ 2512579.620696164201945, 2397268.518881658092141 ], [ 2512589.328226837329566, 2397307.349084480665624 ], [ 2512608.743085952475667, 2397346.179287302773446 ], [ 2512628.158147299662232, 2397375.302141685504466 ], [ 2512657.280537087935954, 2397346.179287302773446 ], [ 2512666.988067761529237, 2397336.471736597362906 ], [ 2512676.695396203082055, 2397326.764185891486704 ], [ 2512783.477626915089786, 2397249.1037802468054 ], [ 2512783.477626915089786, 2397239.396027275361121 ], [ 2512793.185157588683069, 2397239.396027275361121 ], [ 2512812.600016703829169, 2397219.980925864074379 ], [ 2512861.137265607248992, 2397181.150723041500896 ], [ 2512967.919496319256723, 2397093.782564425375313 ], [ 2512987.334355434402823, 2397084.075013719499111 ], [ 2513074.701524799689651, 2397016.121956514194608 ], [ 2513084.409055473282933, 2397006.414405808784068 ], [ 2513094.116586146410555, 2397006.414405808784068 ], [ 2513210.606145300436765, 2396899.631145780906081 ], [ 2513317.388376012444496, 2396821.970537870191038 ], [ 2513375.633155589457601, 2396773.432784342207015 ], [ 2513463.000324954744428, 2396705.479727136902511 ], [ 2513501.830245416611433, 2396676.35707502020523 ], [ 2513530.952635205350816, 2396647.234422903042287 ], [ 2513628.027335244230926, 2396569.573814992327243 ], [ 2513676.564584147650748, 2396540.451162875629961 ], [ 2513695.979443262796849, 2396521.035859198309481 ], [ 2513705.68697393592447, 2396511.328308492898941 ], [ 2513734.809363724663854, 2396482.205656376201659 ], [ 2513783.34681485965848, 2396433.667902847751975 ], [ 2513909.543904686812311, 2396414.252599170897156 ], [ 2514035.74079228239134, 2396394.837497759610415 ], [ 2514210.475333245005459, 2396365.714845642913133 ], [ 2514268.720112822018564, 2396356.007294937036932 ], [ 2514307.550033283885568, 2396346.299744231626391 ], [ 2514356.087282187305391, 2396346.299744231626391 ], [ 2514385.209671975579113, 2396336.59219352575019 ], [ 2514472.576841341331601, 2396326.88464282033965 ], [ 2514579.359072053339332, 2396307.46933914301917 ], [ 2514666.726241418626159, 2396288.054237731732428 ], [ 2514734.678551669232547, 2396278.346687026321888 ], [ 2514792.923331245779991, 2396268.639136320445687 ], [ 2514880.29050061153248, 2396258.931585615035146 ], [ 2515084.147431362420321, 2396229.808933498337865 ], [ 2515278.296629208140075, 2396200.686079115606844 ], [ 2515317.12654967000708, 2396190.978528409730643 ], [ 2515414.20124970888719, 2396171.563426998443902 ], [ 2515686.010288478340954, 2396123.025673470459878 ], [ 2515783.084988517221063, 2396113.317920499015599 ], [ 2516035.479168171528727, 2396074.487717676442116 ], [ 2516122.846337536815554, 2396055.072616265155375 ], [ 2516229.628568249288946, 2396045.365065559744835 ], [ 2516249.043427364435047, 2396035.657514854334295 ], [ 2516365.532986517995596, 2396016.242413443047553 ], [ 2516482.02274790359661, 2396006.534660471137613 ], [ 2516656.757086634635925, 2395977.412008354440331 ], [ 2516802.369035576935858, 2395948.28935623774305 ], [ 2516918.858594730496407, 2395928.874254826456308 ], [ 2517025.640825442969799, 2395919.166704121045768 ], [ 2517083.885605019982904, 2395919.166704121045768 ], [ 2517142.130384596530348, 2395909.459153415169567 ], [ 2517161.545445943716913, 2395909.459153415169567 ], [ 2517210.082694847136736, 2395899.751400443725288 ] ], [ [ 2517210.082694847136736, 2380988.924188063014299 ], [ 2517093.593135693110526, 2381008.33928947430104 ], [ 2516530.559996807482094, 2381095.707448090892285 ], [ 2516482.02274790359661, 2381105.414998796302825 ], [ 2516035.479168171528727, 2381173.368056001607329 ], [ 2515996.649247709661722, 2381183.07560670748353 ], [ 2515977.234388594515622, 2381183.07560670748353 ], [ 2515938.404468132648617, 2381192.78315741289407 ], [ 2515928.696937459520996, 2381192.78315741289407 ], [ 2515899.574547670781612, 2381192.78315741289407 ], [ 2515889.867219229228795, 2381192.78315741289407 ], [ 2515870.45215788250789, 2381202.49070811830461 ], [ 2515656.887898690067232, 2381231.613562501501292 ], [ 2515618.057978228200227, 2381241.321113206911832 ], [ 2515501.568419074174017, 2381251.028663912322372 ], [ 2515365.664000805467367, 2381280.151316029485315 ], [ 2514938.535280188079923, 2381348.104373234789819 ], [ 2514288.134971937164664, 2381445.180082556791604 ], [ 2513861.006453551817685, 2381513.132937496062368 ], [ 2513793.054143301211298, 2381522.840488201472908 ], [ 2513705.68697393592447, 2381522.840488201472908 ], [ 2513666.857053474057466, 2381522.840488201472908 ], [ 2513589.197414782363921, 2381532.548241172917187 ], [ 2513501.830245416611433, 2381542.255791878793389 ], [ 2513463.000324954744428, 2381551.963342584203929 ], [ 2513443.585465840063989, 2381561.67089329008013 ], [ 2513424.170404492877424, 2381561.67089329008013 ], [ 2513375.633155589457601, 2381561.67089329008013 ], [ 2513356.218094242736697, 2381561.67089329008013 ], [ 2513288.265986224170774, 2381571.37844399549067 ], [ 2513239.728535088710487, 2381571.37844399549067 ], [ 2513181.483755512163043, 2381571.37844399549067 ], [ 2513162.068896397016943, 2381561.67089329008013 ], [ 2513132.946506608277559, 2381765.52986263949424 ], [ 2513113.531445261556655, 2381823.775166873354465 ], [ 2513084.409055473282933, 2381940.26617987267673 ], [ 2513064.994196358136833, 2382008.219034811947495 ], [ 2512948.504637204110622, 2382425.644524216651917 ], [ 2512948.504637204110622, 2382435.352074922528118 ], [ 2512938.797106530983001, 2382464.474929305259138 ], [ 2512929.089575857389718, 2382474.182480010669678 ], [ 2512919.382045183796436, 2382513.012682833243161 ], [ 2512899.967186069115996, 2382590.673290743958205 ], [ 2512870.844796280376613, 2382678.04144936054945 ], [ 2512870.844796280376613, 2382687.74900006595999 ], [ 2512764.062565568368882, 2383027.51388156041503 ], [ 2512696.110457549802959, 2383289.618357409723103 ], [ 2512618.45061662606895, 2383542.015080287586898 ], [ 2512550.498306375462562, 2383784.704252459574491 ], [ 2512463.131137010175735, 2384095.346684102900326 ], [ 2512424.30121654830873, 2384211.837494836188853 ], [ 2512288.396798279602081, 2384687.50828847521916 ], [ 2512171.90723912557587, 2385085.518676468636841 ], [ 2512065.125008413568139, 2385464.113963051233441 ], [ 2512016.587759510148317, 2385600.019875195808709 ], [ 2511968.050308374688029, 2385745.633540311828256 ], [ 2511919.513059471268207, 2385862.124351045116782 ], [ 2511880.683139009401202, 2385939.784756690263748 ], [ 2511744.778518508654088, 2386163.059029716998339 ], [ 2511725.363659393507987, 2386192.18168183369562 ], [ 2511725.363659393507987, 2386201.889232539571822 ], [ 2511764.193579855374992, 2386250.426986067555845 ], [ 2511832.14589010598138, 2386347.50269538955763 ], [ 2511987.465369721408933, 2386551.361664739437401 ], [ 2512026.295087951701134, 2386609.607171238865703 ], [ 2512036.002618624828756, 2386619.314721944741905 ], [ 2512045.710149298422039, 2386629.022272650152445 ], [ 2512055.417477739974856, 2386648.437374061439186 ], [ 2512103.954928875435144, 2386716.39043126674369 ], [ 2512142.784849337302148, 2386764.928387060761452 ], [ 2512181.614567567128688, 2386842.588792705442756 ], [ 2512220.444488028995693, 2386920.2494006161578 ], [ 2512239.859347144141793, 2387027.032660644035786 ], [ 2512268.981736932881176, 2387221.184079288039356 ], [ 2512366.056436971295625, 2387803.638335220515728 ], [ 2512366.056436971295625, 2387813.345885925926268 ], [ 2512366.056436971295625, 2387823.053436631802469 ], [ 2512366.056436971295625, 2387852.176088748499751 ], [ 2512414.593888106755912, 2388172.525868831668049 ], [ 2512443.716277895029634, 2388356.969736769795418 ], [ 2512463.131137010175735, 2388454.045446091797203 ], [ 2512472.838667683769017, 2388512.290952591691166 ], [ 2512482.5461983573623, 2388589.951358236372471 ], [ 2512492.253526798915118, 2388667.611966147553176 ], [ 2512560.205837049055845, 2389065.622354140970856 ], [ 2512569.913367722649127, 2389143.282962052151561 ], [ 2512599.035757510922849, 2389308.31152631342411 ], [ 2512657.280537087935954, 2389667.491711484733969 ], [ 2512696.110457549802959, 2389949.011086479295045 ], [ 2512705.817785991355777, 2390016.964143684599549 ], [ 2512705.817785991355777, 2390026.671694390010089 ], [ 2512715.525316664949059, 2390026.671694390010089 ], [ 2512715.525316664949059, 2390036.37924509588629 ], [ 2512715.525316664949059, 2390094.624751595314592 ], [ 2512734.940175779629499, 2390211.115562328603119 ], [ 2512754.355237126816064, 2390395.559430267196149 ], [ 2512773.770096241496503, 2390521.757791705895215 ], [ 2512773.770096241496503, 2390531.465342411771417 ], [ 2512773.770096241496503, 2390560.587994528468698 ], [ 2512812.600016703829169, 2390822.692470377776772 ], [ 2512822.307547376956791, 2390832.400021083652973 ], [ 2512822.307547376956791, 2390880.937976877205074 ], [ 2512832.014875818509609, 2390880.937976877205074 ], [ 2512832.014875818509609, 2390910.060628994368017 ], [ 2512822.307547376956791, 2390910.060628994368017 ], [ 2512773.770096241496503, 2390939.183281111065298 ], [ 2512657.280537087935954, 2391084.796946227084845 ], [ 2512550.498306375462562, 2391249.825510488357395 ], [ 2512540.790977933909744, 2391269.240611899644136 ], [ 2512501.961057472042739, 2391337.19366910494864 ], [ 2512453.423606337048113, 2391405.146726310253143 ], [ 2512404.88635743316263, 2391482.807131954934448 ], [ 2512327.226718741469085, 2391628.420797070953995 ], [ 2512278.689267606008798, 2391735.204057098831981 ], [ 2512181.614567567128688, 2391939.063026448711753 ], [ 2512103.954928875435144, 2392094.384040004108101 ], [ 2512036.002618624828756, 2392230.290154414717108 ], [ 2511977.757839048281312, 2392366.196066559292376 ], [ 2511938.927918586414307, 2392453.56422517541796 ], [ 2511900.097998124547303, 2392540.932383792009205 ], [ 2511880.683139009401202, 2392589.470137319993228 ], [ 2511861.268279894255102, 2392638.00809311401099 ], [ 2511851.560749220661819, 2392676.838295936584473 ], [ 2511851.560749220661819, 2392764.206454553175718 ], [ 2511851.560749220661819, 2392793.329106669872999 ], [ 2511851.560749220661819, 2392841.867062463890761 ], [ 2511861.268279894255102, 2392851.574613169301301 ], [ 2511861.268279894255102, 2392861.282163875177503 ], [ 2511851.560749220661819, 2392861.282163875177503 ], [ 2511793.315969644114375, 2392870.989714580588043 ], [ 2511744.778518508654088, 2392890.404815991874784 ], [ 2511696.241269605234265, 2392909.819917403161526 ], [ 2511647.703818469773978, 2392948.650322491303086 ], [ 2511531.214259316213429, 2393055.433582519181073 ], [ 2511453.554620624054223, 2393113.678886753041297 ], [ 2511375.894779700320214, 2393171.924393252469599 ], [ 2511356.479920585174114, 2393181.631943957880139 ], [ 2511337.065061470028013, 2393191.339494663756341 ], [ 2511346.772389912046492, 2393201.047045369166881 ], [ 2511346.772389912046492, 2393210.754596075043082 ], [ 2511424.432230835780501, 2393346.660710485186428 ], [ 2511443.847089950460941, 2393375.783362602349371 ], [ 2511453.554620624054223, 2393385.490913307759911 ], [ 2511463.261949065607041, 2393395.198464013170451 ], [ 2511463.261949065607041, 2393404.906014719046652 ], [ 2511482.677010412327945, 2393414.613565424457192 ], [ 2511492.384338854346424, 2393414.613565424457192 ], [ 2511502.091869527474046, 2393424.321116130333394 ], [ 2511511.799400201067328, 2393434.028666835743934 ], [ 2511521.50693087419495, 2393434.028666835743934 ], [ 2511531.214259316213429, 2393443.736419807188213 ], [ 2511550.629320662934333, 2393443.736419807188213 ], [ 2511560.336649104487151, 2393453.443970513064414 ], [ 2511570.044179778080434, 2393453.443970513064414 ], [ 2511579.751710451208055, 2393453.443970513064414 ], [ 2511589.459038892760873, 2393453.443970513064414 ], [ 2511599.166569566354156, 2393453.443970513064414 ], [ 2511608.874100239947438, 2393453.443970513064414 ], [ 2511618.581428681500256, 2393453.443970513064414 ], [ 2511628.288959354627877, 2393453.443970513064414 ], [ 2511725.363659393507987, 2393443.736419807188213 ], [ 2511803.023298085667193, 2393434.028666835743934 ], [ 2511890.390669682528824, 2393414.613565424457192 ], [ 2512006.880228836555034, 2393395.198464013170451 ], [ 2512006.880228836555034, 2393424.321116130333394 ], [ 2512006.880228836555034, 2393434.028666835743934 ], [ 2512026.295087951701134, 2393599.057433363050222 ], [ 2512026.295087951701134, 2393618.472534774336964 ], [ 2512036.002618624828756, 2393628.180085479747504 ], [ 2512045.710149298422039, 2393715.548244096338749 ], [ 2512045.710149298422039, 2393725.255794801749289 ], [ 2512045.710149298422039, 2393734.96334550762549 ], [ 2512045.710149298422039, 2393773.793750595767051 ], [ 2512065.125008413568139, 2393870.869459918234497 ], [ 2512074.83253908669576, 2393958.237618534360081 ], [ 2512084.53986752871424, 2394016.482922768220305 ], [ 2512084.53986752871424, 2394035.898024179507047 ], [ 2512094.247398201841861, 2394074.728429267648607 ], [ 2512103.954928875435144, 2394162.096587884239852 ], [ 2512113.662257316987962, 2394230.049442823510617 ], [ 2512123.369787990581244, 2394249.464544234797359 ], [ 2512123.369787990581244, 2394268.879847911652178 ], [ 2512133.077318663708866, 2394327.125152145512402 ], [ 2512133.077318663708866, 2394336.832702850922942 ], [ 2512142.784849337302148, 2394395.078209350816905 ], [ 2512142.784849337302148, 2394424.200861467514187 ], [ 2512152.492177778854966, 2394443.615962878800929 ], [ 2512152.492177778854966, 2394472.738817261531949 ], [ 2512162.199708452448249, 2394530.984121495392174 ], [ 2512171.90723912557587, 2394589.229627994820476 ], [ 2512181.614567567128688, 2394657.18248293409124 ], [ 2512191.322098240721971, 2394686.305337316822261 ], [ 2512191.322098240721971, 2394705.720438728109002 ], [ 2512210.736957355868071, 2394861.041452283971012 ], [ 2512220.444488028995693, 2394909.579408077988774 ], [ 2512230.152018702588975, 2394967.824712311383337 ], [ 2512239.859347144141793, 2394996.947566694114357 ], [ 2512249.566877817735076, 2395026.0702188112773 ], [ 2512249.566877817735076, 2395045.485320222564042 ], [ 2512259.274408490862697, 2395055.192870927974582 ], [ 2512268.981736932881176, 2395142.561029544565827 ], [ 2512278.689267606008798, 2395200.806536043994129 ], [ 2512288.396798279602081, 2395268.759390983264893 ], [ 2512298.104328953195363, 2395317.297346777282655 ], [ 2512298.104328953195363, 2395346.419998893979937 ], [ 2512307.811657394748181, 2395394.957954687997699 ], [ 2512317.519188067875803, 2395414.37305609928444 ], [ 2512317.519188067875803, 2395433.788157510571182 ], [ 2512317.519188067875803, 2395462.910809627268463 ], [ 2512317.519188067875803, 2395482.325911038555205 ], [ 2512307.811657394748181, 2395511.448765421286225 ], [ 2512307.811657394748181, 2395530.863866832572967 ], [ 2512307.811657394748181, 2395550.278968243859708 ], [ 2512307.811657394748181, 2395618.232025449164212 ], [ 2512307.811657394748181, 2395676.477329682558775 ], [ 2512307.811657394748181, 2395705.600184065289795 ], [ 2512317.519188067875803, 2395754.13793759373948 ], [ 2512298.104328953195363, 2395773.55303900456056 ], [ 2512298.104328953195363, 2395792.968140415847301 ], [ 2512298.104328953195363, 2395851.213646915741265 ], [ 2512307.811657394748181, 2395870.628748327028006 ], [ 2512317.519188067875803, 2395919.166704121045768 ], [ 2512317.519188067875803, 2395977.412008354440331 ], [ 2512327.226718741469085, 2396016.242413443047553 ], [ 2512336.934047183021903, 2396025.949964148458093 ], [ 2512336.934047183021903, 2396035.657514854334295 ], [ 2512346.641577856615186, 2396035.657514854334295 ], [ 2512356.349108529742807, 2396035.657514854334295 ], [ 2512366.056436971295625, 2396093.902819087728858 ], [ 2512395.178826760035008, 2396239.516484203748405 ], [ 2512414.593888106755912, 2396346.299744231626391 ], [ 2512424.30121654830873, 2396462.790554964914918 ], [ 2512443.716277895029634, 2396598.696467109490186 ], [ 2512453.423606337048113, 2396627.819321492221206 ] ] ] } },
{ "type": "Feature", "properties": { }, "geometry": { "type": "LineString", "coordinates": [ [ 2507250.221140326466411, 2397452.962749596685171 ], [ 2507347.295840365346521, 2397443.254996624775231 ], [ 2507492.907991539221257, 2397414.132344508077949 ], [ 2507589.982489346526563, 2397404.424793802667409 ], [ 2507609.397550693247467, 2397394.717243096791208 ], [ 2507648.227471155114472, 2397394.717243096791208 ], [ 2507832.669340559281409, 2397365.594590980093926 ], [ 2508007.403679289855063, 2397336.471736597362906 ], [ 2508046.233599751722068, 2397326.764185891486704 ], [ 2508123.893238443881273, 2397317.056635186076164 ], [ 2508153.015628232154995, 2397317.056635186076164 ], [ 2508240.382797597441822, 2397297.641533774789423 ], [ 2508298.627779406495392, 2397287.933983069378883 ], [ 2508318.042638521175832, 2397287.933983069378883 ], [ 2508366.579887425061315, 2397278.226432363502681 ], [ 2508453.947259021922946, 2397268.518881658092141 ], [ 2508541.314428387209773, 2397249.1037802468054 ], [ 2508570.436818175949156, 2397249.1037802468054 ], [ 2508832.538326271809638, 2397200.565824452787638 ], [ 2508851.953387618996203, 2397200.565824452787638 ], [ 2508968.442946772556752, 2397181.150723041500896 ], [ 2509055.810116137843579, 2397171.443172336090356 ], [ 2509075.22497525298968, 2397171.443172336090356 ], [ 2509191.714736638590693, 2397152.028070924803615 ], [ 2509376.15660604275763, 2397122.905216542072594 ], [ 2509453.816244734916836, 2397103.490115130785853 ], [ 2509492.646165196783841, 2397103.490115130785853 ], [ 2509599.428395908791572, 2397084.075013719499111 ], [ 2509667.380503927357495, 2397074.367463014088571 ], [ 2509696.502893716096878, 2397064.65991230821237 ], [ 2509774.162734639830887, 2397054.95236160280183 ], [ 2509803.285124428104609, 2397054.95236160280183 ], [ 2509890.652293793391436, 2397035.537057925481349 ], [ 2509910.067355140578002, 2397035.537057925481349 ], [ 2509997.434524505864829, 2397016.121956514194608 ], [ 2510065.386834756005555, 2397006.414405808784068 ], [ 2510104.216552986297756, 2397006.414405808784068 ], [ 2510230.413642813451588, 2396986.999304397497326 ], [ 2510356.61073264060542, 2396967.584202986210585 ], [ 2510463.392963353078812, 2396948.169101574923843 ], [ 2510521.637742929626256, 2396938.461550869513303 ], [ 2510579.882522506639361, 2396928.753797898069024 ], [ 2510618.712442968506366, 2396919.046247192192823 ], [ 2510744.909532795660198, 2396899.631145780906081 ], [ 2510774.031922584399581, 2396899.631145780906081 ], [ 2510948.766261314973235, 2396870.5084936642088 ], [ 2511113.793271603994071, 2396841.385841547511518 ], [ 2511162.330520507879555, 2396841.385841547511518 ], [ 2511220.575300084426999, 2396831.678088575601578 ], [ 2511288.527610335033387, 2396821.970537870191038 ], [ 2511327.357530796900392, 2396812.262987164780498 ], [ 2511434.139559277333319, 2396792.847885753493756 ], [ 2511492.384338854346424, 2396783.140335047617555 ], [ 2511531.214259316213429, 2396783.140335047617555 ], [ 2511589.459038892760873, 2396773.432784342207015 ], [ 2511628.288959354627877, 2396763.725233636330813 ], [ 2511696.241269605234265, 2396754.017682930920273 ], [ 2511793.315969644114375, 2396734.602581519633532 ], [ 2511890.390669682528824, 2396724.894828548189253 ], [ 2511948.635449259541929, 2396715.187277842778713 ], [ 2512424.30121654830873, 2396637.526872197631747 ], [ 2512434.008747221902013, 2396637.526872197631747 ], [ 2512453.423606337048113, 2396627.819321492221206 ], [ 2512443.716277895029634, 2396598.696467109490186 ], [ 2512424.30121654830873, 2396462.790554964914918 ], [ 2512414.593888106755912, 2396346.299744231626391 ], [ 2512395.178826760035008, 2396239.516484203748405 ], [ 2512366.056436971295625, 2396093.902819087728858 ], [ 2512356.349108529742807, 2396035.657514854334295 ], [ 2512346.641577856615186, 2396035.657514854334295 ], [ 2512336.934047183021903, 2396035.657514854334295 ], [ 2512336.934047183021903, 2396025.949964148458093 ], [ 2512327.226718741469085, 2396016.242413443047553 ], [ 2512317.519188067875803, 2395977.412008354440331 ], [ 2512317.519188067875803, 2395919.166704121045768 ], [ 2512307.811657394748181, 2395870.628748327028006 ], [ 2512298.104328953195363, 2395851.213646915741265 ], [ 2512298.104328953195363, 2395792.968140415847301 ], [ 2512298.104328953195363, 2395773.55303900456056 ], [ 2512317.519188067875803, 2395754.13793759373948 ], [ 2512307.811657394748181, 2395705.600184065289795 ], [ 2512307.811657394748181, 2395676.477329682558775 ], [ 2512307.811657394748181, 2395618.232025449164212 ], [ 2512307.811657394748181, 2395550.278968243859708 ], [ 2512307.811657394748181, 2395530.863866832572967 ], [ 2512307.811657394748181, 2395511.448765421286225 ], [ 2512317.519188067875803, 2395482.325911038555205 ], [ 2512317.519188067875803, 2395462.910809627268463 ], [ 2512317.519188067875803, 2395433.788157510571182 ], [ 2512317.519188067875803, 2395414.37305609928444 ], [ 2512307.811657394748181, 2395394.957954687997699 ], [ 2512298.104328953195363, 2395346.419998893979937 ], [ 2512298.104328953195363, 2395317.297346777282655 ], [ 2512288.396798279602081, 2395268.759390983264893 ], [ 2512278.689267606008798, 2395200.806536043994129 ], [ 2512268.981736932881176, 2395142.561029544565827 ], [ 2512259.274408490862697, 2395055.192870927974582 ], [ 2512249.566877817735076, 2395045.485320222564042 ], [ 2512249.566877817735076, 2395026.0702188112773 ], [ 2512239.859347144141793, 2394996.947566694114357 ], [ 2512230.152018702588975, 2394967.824712311383337 ], [ 2512220.444488028995693, 2394909.579408077988774 ], [ 2512210.736957355868071, 2394861.041452283971012 ], [ 2512191.322098240721971, 2394705.720438728109002 ], [ 2512191.322098240721971, 2394686.305337316822261 ], [ 2512181.614567567128688, 2394657.18248293409124 ], [ 2512171.90723912557587, 2394589.229627994820476 ], [ 2512162.199708452448249, 2394530.984121495392174 ], [ 2512152.492177778854966, 2394472.738817261531949 ], [ 2512152.492177778854966, 2394443.615962878800929 ], [ 2512142.784849337302148, 2394424.200861467514187 ], [ 2512142.784849337302148, 2394395.078209350816905 ], [ 2512133.077318663708866, 2394336.832702850922942 ], [ 2512133.077318663708866, 2394327.125152145512402 ], [ 2512123.369787990581244, 2394268.879847911652178 ], [ 2512123.369787990581244, 2394249.464544234797359 ], [ 2512113.662257316987962, 2394230.049442823510617 ], [ 2512103.954928875435144, 2394162.096587884239852 ], [ 2512094.247398201841861, 2394074.728429267648607 ], [ 2512084.53986752871424, 2394035.898024179507047 ], [ 2512084.53986752871424, 2394016.482922768220305 ], [ 2512074.83253908669576, 2393958.237618534360081 ], [ 2512065.125008413568139, 2393870.869459918234497 ], [ 2512045.710149298422039, 2393773.793750595767051 ], [ 2512045.710149298422039, 2393734.96334550762549 ], [ 2512045.710149298422039, 2393725.255794801749289 ], [ 2512045.710149298422039, 2393715.548244096338749 ], [ 2512036.002618624828756, 2393628.180085479747504 ], [ 2512026.295087951701134, 2393618.472534774336964 ], [ 2512026.295087951701134, 2393599.057433363050222 ], [ 2512006.880228836555034, 2393434.028666835743934 ], [ 2512006.880228836555034, 2393424.321116130333394 ], [ 2512006.880228836555034, 2393395.198464013170451 ], [ 2511890.390669682528824, 2393414.613565424457192 ], [ 2511803.023298085667193, 2393434.028666835743934 ], [ 2511725.363659393507987, 2393443.736419807188213 ], [ 2511628.288959354627877, 2393453.443970513064414 ], [ 2511618.581428681500256, 2393453.443970513064414 ], [ 2511608.874100239947438, 2393453.443970513064414 ], [ 2511599.166569566354156, 2393453.443970513064414 ], [ 2511589.459038892760873, 2393453.443970513064414 ], [ 2511579.751710451208055, 2393453.443970513064414 ], [ 2511570.044179778080434, 2393453.443970513064414 ], [ 2511560.336649104487151, 2393453.443970513064414 ], [ 2511550.629320662934333, 2393443.736419807188213 ], [ 2511531.214259316213429, 2393443.736419807188213 ], [ 2511521.50693087419495, 2393434.028666835743934 ], [ 2511511.799400201067328, 2393434.028666835743934 ], [ 2511502.091869527474046, 2393424.321116130333394 ], [ 2511492.384338854346424, 2393414.613565424457192 ], [ 2511482.677010412327945, 2393414.613565424457192 ], [ 2511463.261949065607041, 2393404.906014719046652 ], [ 2511463.261949065607041, 2393395.198464013170451 ], [ 2511453.554620624054223, 2393385.490913307759911 ], [ 2511443.847089950460941, 2393375.783362602349371 ], [ 2511424.432230835780501, 2393346.660710485186428 ], [ 2511346.772389912046492, 2393210.754596075043082 ], [ 2511346.772389912046492, 2393201.047045369166881 ], [ 2511337.065061470028013, 2393191.339494663756341 ], [ 2511356.479920585174114, 2393181.631943957880139 ], [ 2511375.894779700320214, 2393171.924393252469599 ], [ 2511453.554620624054223, 2393113.678886753041297 ], [ 2511531.214259316213429, 2393055.433582519181073 ], [ 2511647.703818469773978, 2392948.650322491303086 ], [ 2511696.241269605234265, 2392909.819917403161526 ], [ 2511744.778518508654088, 2392890.404815991874784 ], [ 2511793.315969644114375, 2392870.989714580588043 ], [ 2511851.560749220661819, 2392861.282163875177503 ], [ 2511861.268279894255102, 2392861.282163875177503 ], [ 2511861.268279894255102, 2392851.574613169301301 ], [ 2511851.560749220661819, 2392841.867062463890761 ], [ 2511851.560749220661819, 2392793.329106669872999 ], [ 2511851.560749220661819, 2392764.206454553175718 ], [ 2511851.560749220661819, 2392676.838295936584473 ], [ 2511861.268279894255102, 2392638.00809311401099 ], [ 2511880.683139009401202, 2392589.470137319993228 ], [ 2511900.097998124547303, 2392540.932383792009205 ], [ 2511938.927918586414307, 2392453.56422517541796 ], [ 2511977.757839048281312, 2392366.196066559292376 ], [ 2512036.002618624828756, 2392230.290154414717108 ], [ 2512103.954928875435144, 2392094.384040004108101 ], [ 2512181.614567567128688, 2391939.063026448711753 ], [ 2512278.689267606008798, 2391735.204057098831981 ], [ 2512327.226718741469085, 2391628.420797070953995 ], [ 2512404.88635743316263, 2391482.807131954934448 ], [ 2512453.423606337048113, 2391405.146726310253143 ], [ 2512501.961057472042739, 2391337.19366910494864 ], [ 2512540.790977933909744, 2391269.240611899644136 ], [ 2512550.498306375462562, 2391249.825510488357395 ], [ 2512657.280537087935954, 2391084.796946227084845 ], [ 2512773.770096241496503, 2390939.183281111065298 ], [ 2512822.307547376956791, 2390910.060628994368017 ], [ 2512832.014875818509609, 2390910.060628994368017 ], [ 2512832.014875818509609, 2390880.937976877205074 ], [ 2512822.307547376956791, 2390880.937976877205074 ], [ 2512822.307547376956791, 2390832.400021083652973 ], [ 2512812.600016703829169, 2390822.692470377776772 ], [ 2512773.770096241496503, 2390560.587994528468698 ], [ 2512773.770096241496503, 2390531.465342411771417 ], [ 2512773.770096241496503, 2390521.757791705895215 ], [ 2512754.355237126816064, 2390395.559430267196149 ], [ 2512734.940175779629499, 2390211.115562328603119 ], [ 2512715.525316664949059, 2390094.624751595314592 ], [ 2512715.525316664949059, 2390036.37924509588629 ], [ 2512715.525316664949059, 2390026.671694390010089 ], [ 2512705.817785991355777, 2390026.671694390010089 ], [ 2512705.817785991355777, 2390016.964143684599549 ], [ 2512696.110457549802959, 2389949.011086479295045 ], [ 2512657.280537087935954, 2389667.491711484733969 ], [ 2512599.035757510922849, 2389308.31152631342411 ], [ 2512569.913367722649127, 2389143.282962052151561 ], [ 2512560.205837049055845, 2389065.622354140970856 ], [ 2512492.253526798915118, 2388667.611966147553176 ], [ 2512482.5461983573623, 2388589.951358236372471 ], [ 2512472.838667683769017, 2388512.290952591691166 ], [ 2512463.131137010175735, 2388454.045446091797203 ], [ 2512443.716277895029634, 2388356.969736769795418 ], [ 2512414.593888106755912, 2388172.525868831668049 ], [ 2512366.056436971295625, 2387852.176088748499751 ], [ 2512366.056436971295625, 2387823.053436631802469 ], [ 2512366.056436971295625, 2387813.345885925926268 ], [ 2512366.056436971295625, 2387803.638335220515728 ], [ 2512268.981736932881176, 2387221.184079288039356 ], [ 2512239.859347144141793, 2387027.032660644035786 ], [ 2512220.444488028995693, 2386920.2494006161578 ], [ 2512181.614567567128688, 2386842.588792705442756 ], [ 2512142.784849337302148, 2386764.928387060761452 ], [ 2512103.954928875435144, 2386716.39043126674369 ], [ 2512055.417477739974856, 2386648.437374061439186 ], [ 2512045.710149298422039, 2386629.022272650152445 ], [ 2512036.002618624828756, 2386619.314721944741905 ], [ 2512026.295087951701134, 2386609.607171238865703 ], [ 2511987.465369721408933, 2386551.361664739437401 ], [ 2511832.14589010598138, 2386347.50269538955763 ], [ 2511764.193579855374992, 2386250.426986067555845 ], [ 2511725.363659393507987, 2386201.889232539571822 ], [ 2511725.363659393507987, 2386192.18168183369562 ], [ 2511744.778518508654088, 2386163.059029716998339 ], [ 2511880.683139009401202, 2385939.784756690263748 ], [ 2511919.513059471268207, 2385862.124351045116782 ], [ 2511968.050308374688029, 2385745.633540311828256 ], [ 2512016.587759510148317, 2385600.019875195808709 ], [ 2512065.125008413568139, 2385464.113963051233441 ], [ 2512171.90723912557587, 2385085.518676468636841 ], [ 2512288.396798279602081, 2384687.50828847521916 ], [ 2512424.30121654830873, 2384211.837494836188853 ], [ 2512463.131137010175735, 2384095.346684102900326 ], [ 2512550.498306375462562, 2383784.704252459574491 ], [ 2512618.45061662606895, 2383542.015080287586898 ], [ 2512696.110457549802959, 2383289.618357409723103 ], [ 2512764.062565568368882, 2383027.51388156041503 ], [ 2512870.844796280376613, 2382687.74900006595999 ], [ 2512870.844796280376613, 2382678.04144936054945 ], [ 2512899.967186069115996, 2382590.673290743958205 ], [ 2512919.382045183796436, 2382513.012682833243161 ], [ 2512929.089575857389718, 2382474.182480010669678 ], [ 2512938.797106530983001, 2382464.474929305259138 ], [ 2512948.504637204110622, 2382435.352074922528118 ], [ 2512948.504637204110622, 2382425.644524216651917 ], [ 2513064.994196358136833, 2382008.219034811947495 ], [ 2513084.409055473282933, 2381940.26617987267673 ], [ 2513113.531445261556655, 2381823.775166873354465 ], [ 2513132.946506608277559, 2381765.52986263949424 ], [ 2513162.068896397016943, 2381561.67089329008013 ], [ 2513181.483755512163043, 2381571.37844399549067 ], [ 2513239.728535088710487, 2381571.37844399549067 ], [ 2513288.265986224170774, 2381571.37844399549067 ], [ 2513356.218094242736697, 2381561.67089329008013 ], [ 2513375.633155589457601, 2381561.67089329008013 ], [ 2513424.170404492877424, 2381561.67089329008013 ], [ 2513443.585465840063989, 2381561.67089329008013 ], [ 2513463.000324954744428, 2381551.963342584203929 ], [ 2513501.830245416611433, 2381542.255791878793389 ], [ 2513589.197414782363921, 2381532.548241172917187 ], [ 2513666.857053474057466, 2381522.840488201472908 ], [ 2513705.68697393592447, 2381522.840488201472908 ], [ 2513686.27211482077837, 2381357.811923940200359 ], [ 2513686.27211482077837, 2381338.396822528913617 ], [ 2513676.564584147650748, 2381318.981518851593137 ], [ 2513569.782353435177356, 2380610.329103746451437 ], [ 2513482.415184069890529, 2380629.744205157738179 ], [ 2513259.143394203856587, 2380668.574407980311662 ], [ 2513220.313675974030048, 2380668.574407980311662 ], [ 2513191.191286185290664, 2380678.281958685722202 ], [ 2513171.77622483856976, 2380678.281958685722202 ], [ 2513074.701524799689651, 2380095.827905019279569 ], [ 2513055.28666568454355, 2379853.138530581258237 ], [ 2513064.994196358136833, 2379756.062821259256452 ], [ 2513035.871806569863111, 2379756.062821259256452 ], [ 2513006.749416781123728, 2379765.770371964666992 ], [ 2512997.041886107996106, 2379765.770371964666992 ], [ 2512987.334355434402823, 2379765.770371964666992 ], [ 2512987.334355434402823, 2379775.477922670543194 ], [ 2512977.627026992850006, 2379775.477922670543194 ], [ 2512967.919496319256723, 2379775.477922670543194 ], [ 2512958.21196564566344, 2379775.477922670543194 ], [ 2512948.504637204110622, 2379785.185675641987473 ], [ 2512637.865677972789854, 2379833.723429169971496 ], [ 2512424.30121654830873, 2379862.846081287134439 ], [ 2512414.593888106755912, 2379862.846081287134439 ], [ 2512171.90723912557587, 2379794.893226347863674 ], [ 2512162.199708452448249, 2379794.893226347863674 ], [ 2512152.492177778854966, 2379794.893226347863674 ], [ 2512084.53986752871424, 2379824.015878464560956 ], [ 2511958.342777701094747, 2379862.846081287134439 ], [ 2511948.635449259541929, 2379862.846081287134439 ], [ 2511938.927918586414307, 2379862.846081287134439 ], [ 2511744.778518508654088, 2379785.185675641987473 ], [ 2511725.363659393507987, 2379775.477922670543194 ], [ 2511705.948800278361887, 2379756.062821259256452 ], [ 2511608.874100239947438, 2379726.940169142559171 ], [ 2511599.166569566354156, 2379717.232618436682969 ], [ 2511589.459038892760873, 2379717.232618436682969 ], [ 2511579.751710451208055, 2379717.232618436682969 ], [ 2511570.044179778080434, 2379717.232618436682969 ], [ 2511560.336649104487151, 2379717.232618436682969 ], [ 2511550.629320662934333, 2379717.232618436682969 ], [ 2511540.92178998934105, 2379717.232618436682969 ], [ 2511531.214259316213429, 2379726.940169142559171 ], [ 2511521.50693087419495, 2379726.940169142559171 ], [ 2511472.969479739200324, 2379765.770371964666992 ], [ 2511288.527610335033387, 2379891.968935669865459 ], [ 2511259.405220546294004, 2379921.091587786562741 ], [ 2511220.575300084426999, 2379940.506689197849482 ], [ 2511210.867971642874181, 2379950.214239903260022 ], [ 2511201.16044096974656, 2379950.214239903260022 ], [ 2511191.452910296153277, 2379950.214239903260022 ], [ 2511191.452910296153277, 2379940.506689197849482 ], [ 2511181.745581854600459, 2379940.506689197849482 ], [ 2511172.038051181007177, 2379940.506689197849482 ], [ 2511172.038051181007177, 2379930.799138491973281 ], [ 2511142.915661392733455, 2379940.506689197849482 ], [ 2511133.208130719140172, 2379950.214239903260022 ], [ 2511113.793271603994071, 2379940.506689197849482 ], [ 2511055.548492027446628, 2379930.799138491973281 ], [ 2510997.303510218393058, 2379921.091587786562741 ], [ 2510977.888651103712618, 2379911.384037081152201 ], [ 2510948.766261314973235, 2379901.676486375275999 ], [ 2510929.351402199827135, 2379891.968935669865459 ], [ 2510919.643871526699513, 2379891.968935669865459 ], [ 2510900.229012411553413, 2379882.261384963989258 ], [ 2510871.106622623279691, 2379872.553631992544979 ], [ 2510919.643871526699513, 2379610.449358409270644 ], [ 2510909.93634085310623, 2379610.449358409270644 ], [ 2510890.52148173796013, 2379600.741807703394443 ], [ 2510871.106622623279691, 2379600.741807703394443 ], [ 2510861.399091949686408, 2379600.741807703394443 ], [ 2510851.691561276093125, 2379600.741807703394443 ], [ 2510851.691561276093125, 2379591.034256997983903 ], [ 2510822.569171487819403, 2379581.326706292107701 ], [ 2510783.739251025952399, 2379571.618953320663422 ], [ 2510774.031922584399581, 2379571.618953320663422 ], [ 2510764.324391910806298, 2379571.618953320663422 ], [ 2510744.909532795660198, 2379697.817517025396228 ], [ 2510735.202002122532576, 2379765.770371964666992 ], [ 2510715.787143007386476, 2379853.138530581258237 ], [ 2510706.079612333793193, 2379891.968935669865459 ], [ 2510706.079612333793193, 2379901.676486375275999 ], [ 2510706.079612333793193, 2379911.384037081152201 ], [ 2510686.664550987072289, 2379969.629341314546764 ], [ 2510657.542161198798567, 2380163.780759958550334 ], [ 2510647.834832757245749, 2380183.195861369837075 ], [ 2510628.419771410059184, 2380280.271570691838861 ], [ 2510609.004912295378745, 2380357.932178603019565 ], [ 2510560.467663391493261, 2380581.206249363720417 ], [ 2510550.760132718365639, 2380620.036654452327639 ], [ 2510550.760132718365639, 2380668.574407980311662 ], [ 2510531.345273603219539, 2380814.188073096331209 ], [ 2510521.637742929626256, 2380833.60317450761795 ], [ 2510511.930212256498635, 2380833.60317450761795 ], [ 2510492.515353141352534, 2380891.848478741012514 ], [ 2510492.515353141352534, 2380901.556029446888715 ], [ 2510492.515353141352534, 2380911.263782418332994 ], [ 2510502.222681582905352, 2380911.263782418332994 ], [ 2510521.637742929626256, 2380920.971333123743534 ], [ 2510511.930212256498635, 2380940.386434535030276 ], [ 2510502.222681582905352, 2380979.216637357603759 ], [ 2510453.68543267948553, 2381066.584795974195004 ], [ 2510443.977902005892247, 2381085.999897385481745 ], [ 2510434.270573564339429, 2381105.414998796302825 ], [ 2510424.563042891211808, 2381153.952954590320587 ], [ 2510405.148183776065707, 2381212.198258824180812 ], [ 2510405.148183776065707, 2381241.321113206911832 ], [ 2510385.733122429344803, 2381357.811923940200359 ], [ 2510385.733122429344803, 2381367.519474645610899 ], [ 2510385.733122429344803, 2381406.349677468184382 ], [ 2510376.025793987326324, 2381435.472531850915402 ], [ 2510346.903201967477798, 2381581.08599470090121 ], [ 2510327.488342852331698, 2381678.161704023368657 ], [ 2510308.073483737185597, 2381746.114761228207499 ], [ 2510278.951093948911875, 2381862.605571961496025 ], [ 2510278.951093948911875, 2381882.020673372782767 ], [ 2510269.243563275318593, 2381901.435774784069508 ], [ 2510249.828704160172492, 2381959.681281283963472 ], [ 2510240.121173487044871, 2381998.511484106071293 ], [ 2510240.121173487044871, 2382027.634136223234236 ], [ 2510230.413642813451588, 2382085.879642722662538 ], [ 2510220.70631437189877, 2382124.709845545236021 ], [ 2510220.70631437189877, 2382144.12514922209084 ], [ 2510210.998783698305488, 2382144.12514922209084 ], [ 2510201.291253025177866, 2382173.247801339253783 ], [ 2510201.291253025177866, 2382202.370453455951065 ], [ 2510172.168863236438483, 2382289.73861207254231 ], [ 2510162.461332563310862, 2382338.276365600526333 ], [ 2510143.046473448164761, 2382396.521872099954635 ], [ 2510133.338942774571478, 2382406.229422805830836 ], [ 2510133.338942774571478, 2382435.352074922528118 ], [ 2510123.631614333018661, 2382445.059625627938658 ], [ 2510123.631614333018661, 2382464.474929305259138 ], [ 2510113.924083659425378, 2382464.474929305259138 ], [ 2510113.924083659425378, 2382474.182480010669678 ], [ 2510113.924083659425378, 2382483.89003071654588 ], [ 2510113.924083659425378, 2382493.59758142195642 ], [ 2510104.216552986297756, 2382503.305132127832621 ], [ 2510113.924083659425378, 2382513.012682833243161 ], [ 2510113.924083659425378, 2382532.427784244529903 ], [ 2510075.094163197558373, 2382639.211044272407889 ], [ 2510045.971773409284651, 2382716.871652183122933 ], [ 2509978.019463159143925, 2382930.438172238413244 ], [ 2509958.604604043997824, 2382969.268577326554805 ], [ 2509948.897073370404541, 2383008.098780149128288 ], [ 2509919.77468358213082, 2383095.466938765719533 ], [ 2509822.69998354325071, 2383376.986516026314348 ], [ 2509793.577593754976988, 2383464.354472376871854 ], [ 2509774.162734639830887, 2383512.892428170889616 ], [ 2509715.917955062817782, 2383677.920992432162166 ], [ 2509686.79556527454406, 2383745.874049637001008 ], [ 2509667.380503927357495, 2383823.534657548181713 ], [ 2509647.965644812677056, 2383852.657309664878994 ], [ 2509638.258114139083773, 2383891.487714753486216 ], [ 2509638.258114139083773, 2383920.610366870183498 ], [ 2509609.135724350810051, 2383978.855671103578061 ], [ 2509560.598475446924567, 2384095.346684102900326 ], [ 2509541.183414100203663, 2384163.299539042171091 ], [ 2509502.353695870377123, 2384240.960146952886134 ], [ 2509453.816244734916836, 2384357.450957686174661 ], [ 2509434.401385619770736, 2384405.988913480192423 ], [ 2509414.986526504624635, 2384483.649319125339389 ], [ 2509414.986526504624635, 2384493.356869830749929 ], [ 2509414.986526504624635, 2384483.649319125339389 ], [ 2509395.571465157903731, 2384551.602376330643892 ], [ 2509385.863934484310448, 2384561.309927036054432 ], [ 2509366.449075369630009, 2384609.847882830072194 ], [ 2509356.741544696036726, 2384629.262984241358936 ], [ 2509347.034216254483908, 2384668.093187063932419 ], [ 2509327.619154907763004, 2384697.2158391806297 ], [ 2509230.544454868882895, 2384930.197662913240492 ], [ 2509191.714736638590693, 2385017.565619263797998 ], [ 2509172.299675291869789, 2385066.10357505781576 ], [ 2509152.884816176723689, 2385104.933777879923582 ], [ 2509094.640036600176245, 2385231.132341584656388 ], [ 2509065.517646811436862, 2385328.208050907123834 ], [ 2509007.272867234423757, 2385454.406412345822901 ], [ 2508939.32055698428303, 2385600.019875195808709 ], [ 2508919.90569786913693, 2385638.850280284415931 ], [ 2508900.490636522416025, 2385687.388033812399954 ], [ 2508871.368246733676642, 2385735.925787340383977 ], [ 2508822.83099783025682, 2385833.001496662385762 ], [ 2508803.415936483535916, 2385871.831901750992984 ], [ 2508754.878687580116093, 2385978.615161778405309 ], [ 2508725.75629779137671, 2386036.860466012265533 ], [ 2508696.633908003102988, 2386104.813523217570037 ], [ 2508686.926377329509705, 2386124.228624628856778 ], [ 2508638.389128426089883, 2386211.596783244982362 ], [ 2508589.851677291095257, 2386298.964941861573607 ], [ 2508551.021756829228252, 2386366.91799906687811 ], [ 2508531.606897714082152, 2386415.455752594862133 ], [ 2508463.654587463475764, 2386541.6541140335612 ], [ 2508424.824667001608759, 2386599.899620533455163 ], [ 2508366.579887425061315, 2386696.975329855456948 ], [ 2508356.872558983042836, 2386716.39043126674369 ], [ 2508356.872558983042836, 2386726.09798197215423 ], [ 2508356.872558983042836, 2386735.805532678030431 ], [ 2508347.165028309915215, 2386745.513083383440971 ], [ 2508308.33510784804821, 2386803.758589882869273 ], [ 2508308.33510784804821, 2386813.466140588745475 ], [ 2508288.92024873290211, 2386832.881242 ], [ 2508269.505187386181206, 2386891.126748499460518 ], [ 2508259.797858944628388, 2386910.54184991074726 ], [ 2508240.382797597441822, 2386939.664502027444541 ], [ 2508191.845548694022, 2387017.325109938159585 ], [ 2508172.430689578875899, 2387046.447762055322528 ], [ 2508153.015628232154995, 2387056.155312760733068 ], [ 2508143.308299790602177, 2387075.570616438053548 ], [ 2508123.893238443881273, 2387104.69326855475083 ], [ 2508085.063317982014269, 2387162.938572788611054 ], [ 2508065.648458866868168, 2387192.061427171342075 ], [ 2508055.940928193274885, 2387192.061427171342075 ], [ 2508036.526069078594446, 2387221.184079288039356 ], [ 2508026.818538405001163, 2387230.891629993915558 ], [ 2508007.403679289855063, 2387260.014282110612839 ], [ 2507978.281289501581341, 2387298.8446871987544 ], [ 2507978.281289501581341, 2387318.259788610041142 ], [ 2507949.158899712841958, 2387347.382440727204084 ], [ 2507920.036509924568236, 2387376.505092843901366 ], [ 2507910.328979250974953, 2387395.920396520756185 ], [ 2507871.499058789107949, 2387434.750599343329668 ], [ 2507813.254279212560505, 2387502.703656548634171 ], [ 2507803.546950770542026, 2387522.118757959920913 ], [ 2507793.839420097414404, 2387541.533859371207654 ], [ 2507784.131889423821121, 2387551.241410076618195 ], [ 2507764.717030308675021, 2387570.656511487904936 ], [ 2507745.301968961954117, 2387590.071815165225416 ], [ 2507735.594640520401299, 2387590.071815165225416 ], [ 2507716.179579173680395, 2387619.194467281922698 ], [ 2507696.764720058534294, 2387628.902017987333238 ], [ 2507677.349860943388194, 2387648.31711939861998 ], [ 2507657.93479959666729, 2387667.732220809906721 ], [ 2507638.519940481521189, 2387687.147322221193463 ], [ 2507628.812409808393568, 2387696.855075192637742 ], [ 2507599.690020019654185, 2387735.685278015211225 ], [ 2507570.567630231380463, 2387764.807930131908506 ], [ 2507551.152771116234362, 2387784.223031543195248 ], [ 2507541.445240442641079, 2387784.223031543195248 ], [ 2507531.737709769513458, 2387793.930784514639527 ], [ 2507531.737709769513458, 2387803.638335220515728 ], [ 2507522.03038132796064, 2387793.930784514639527 ], [ 2507522.03038132796064, 2387803.638335220515728 ], [ 2507531.737709769513458, 2387803.638335220515728 ], [ 2507541.445240442641079, 2387813.345885925926268 ], [ 2507512.322850654367357, 2387813.345885925926268 ], [ 2507502.615319980774075, 2387813.345885925926268 ], [ 2507492.907991539221257, 2387813.345885925926268 ], [ 2507454.078071077354252, 2387793.930784514639527 ], [ 2507434.663009730633348, 2387764.807930131908506 ], [ 2507424.95568128908053, 2387764.807930131908506 ], [ 2507415.248150615487248, 2387764.807930131908506 ], [ 2507415.248150615487248, 2387774.515480837784708 ], [ 2507405.540619942359626, 2387774.515480837784708 ], [ 2507395.833291500341147, 2387774.515480837784708 ], [ 2507395.833291500341147, 2387784.223031543195248 ], [ 2507386.125760827213526, 2387784.223031543195248 ], [ 2507386.125760827213526, 2387793.930784514639527 ], [ 2507405.540619942359626, 2387823.053436631802469 ], [ 2507415.248150615487248, 2387842.46853804262355 ], [ 2507415.248150615487248, 2387852.176088748499751 ], [ 2507395.833291500341147, 2387871.591190159786493 ], [ 2507376.418230153620243, 2387891.006291571073234 ], [ 2507357.003371038474143, 2387900.714044542517513 ], [ 2507357.003371038474143, 2387910.421595247928053 ], [ 2507337.588511923793703, 2387939.544247365090996 ], [ 2507327.880981250200421, 2387978.374450187198818 ], [ 2507308.465919903479517, 2388036.619956687092781 ], [ 2507279.343530114740133, 2388085.157710215076804 ], [ 2507269.636201673187315, 2388104.573013892397285 ], [ 2507250.221140326466411, 2388123.988115303218365 ], [ 2507230.806281211320311, 2388162.818318125791848 ], [ 2507211.39142209617421, 2388191.940970242489129 ], [ 2507201.683891423046589, 2388221.063824625685811 ], [ 2507182.269032307900488, 2388240.478926036506891 ], [ 2507153.146642519626766, 2388298.724230270367116 ], [ 2507143.439111846033484, 2388318.139533947687596 ], [ 2507114.316722057759762, 2388356.969736769795418 ], [ 2507085.194332269020379, 2388386.092388886958361 ], [ 2507075.486801595892757, 2388415.215243269689381 ], [ 2507046.364411807153374, 2388434.630344680976123 ], [ 2507036.656881134025753, 2388454.045446091797203 ], [ 2506997.827162903733552, 2388521.998503297101706 ], [ 2506978.412101557012647, 2388551.121155414264649 ], [ 2506958.997242441866547, 2388560.828706119675189 ], [ 2506939.582181095145643, 2388589.951358236372471 ], [ 2506920.167321979999542, 2388609.366459647659212 ], [ 2506891.04493219172582, 2388648.196864736266434 ], [ 2506871.63007307657972, 2388677.319516852963716 ], [ 2506842.507683287840337, 2388706.442168969660997 ], [ 2506745.432983249425888, 2388822.933181968983263 ], [ 2506726.017921902239323, 2388852.055834085680544 ], [ 2506648.358283210545778, 2388939.423992702271789 ], [ 2506609.528362748678774, 2388978.254195524845272 ], [ 2506599.820832075085491, 2388997.669296936132014 ], [ 2506590.113503633532673, 2388997.669296936132014 ], [ 2506570.698442286811769, 2389026.792151318863034 ], [ 2506551.283583171665668, 2389046.207252730149776 ], [ 2506531.868724056519568, 2389065.622354140970856 ], [ 2506531.868724056519568, 2389075.329904846847057 ], [ 2506522.161193383391947, 2389085.037455552257597 ], [ 2506522.161193383391947, 2389104.452556963544339 ], [ 2506502.746132036205381, 2389133.575411346275359 ], [ 2506444.501352459657937, 2389182.113164874259382 ], [ 2506415.378962670918554, 2389220.943367696832865 ], [ 2506386.256572882644832, 2389250.066222079563886 ], [ 2506357.134183093905449, 2389279.188874196726829 ], [ 2506347.426854652352631, 2389288.896424902137369 ], [ 2506337.71932397922501, 2389298.603975607547909 ], [ 2506318.304262632038444, 2389318.019077018834651 ], [ 2506298.889403517358005, 2389337.434380696155131 ], [ 2506269.767013728618622, 2389366.557032812852412 ], [ 2506269.767013728618622, 2389376.264583518728614 ], [ 2506250.352154613472521, 2389395.679684930015355 ], [ 2506211.522234151605517, 2389424.802337046712637 ], [ 2506162.984783016610891, 2389463.632742134854198 ], [ 2506133.862393227871507, 2389502.46294495742768 ], [ 2506124.15506478631869, 2389512.170495662838221 ], [ 2506095.032674998044968, 2389531.585597074124962 ], [ 2506065.910285209305584, 2389560.708451456855983 ], [ 2506036.787895421031862, 2389589.831103574018925 ], [ 2506017.372834074310958, 2389599.538654279429466 ], [ 2505997.957974959164858, 2389628.661306396126747 ], [ 2505978.542913612443954, 2389648.076610073447227 ], [ 2505920.298134035430849, 2389696.614363601431251 ], [ 2505891.175744247157127, 2389716.029465012717992 ], [ 2505871.760885132011026, 2389735.444566424004734 ], [ 2505862.053354458417743, 2389754.859870101325214 ], [ 2505832.930964670144022, 2389774.274971512611955 ], [ 2505813.516105554997921, 2389783.982522218022496 ], [ 2505764.978654419537634, 2389813.105174334719777 ], [ 2505755.271325977984816, 2389822.812725040595978 ], [ 2505745.563795304857194, 2389822.812725040595978 ], [ 2505735.856264631263912, 2389822.812725040595978 ], [ 2505648.489095265977085, 2389890.765782245434821 ], [ 2505619.366705477237701, 2389919.888434362597764 ], [ 2505590.244315688963979, 2389939.303535773884505 ], [ 2505551.414395227096975, 2389968.426390156615525 ], [ 2505434.924836073070765, 2390055.794548772741109 ], [ 2505405.802446284797043, 2390075.209650184027851 ], [ 2505337.850136034190655, 2390123.747403712011874 ], [ 2505299.02021557232365, 2390143.162505123298615 ], [ 2505269.897825784049928, 2390152.870055829174817 ], [ 2505231.068107554223388, 2390172.285359506029636 ], [ 2505221.360576880630106, 2390191.700460917316377 ], [ 2505163.115797303617001, 2390230.53066373988986 ], [ 2505143.700735956896096, 2390230.53066373988986 ], [ 2505075.748627938330173, 2390279.068619533907622 ], [ 2505036.918707476463169, 2390298.483720945194364 ], [ 2505017.503646129742265, 2390317.898822356481105 ], [ 2504988.381256341002882, 2390327.606373061891645 ], [ 2504959.25886655272916, 2390347.021474473178387 ], [ 2504920.429148322436959, 2390366.436778150498867 ], [ 2504910.721617649309337, 2390376.144328855909407 ], [ 2504871.891697187442333, 2390385.851879561319947 ], [ 2504842.769307398702949, 2390395.559430267196149 ], [ 2504823.354448283556849, 2390414.97453167848289 ], [ 2504794.232058495283127, 2390424.68208238389343 ], [ 2504784.524527821689844, 2390434.389633089769632 ], [ 2504765.109668707009405, 2390434.389633089769632 ], [ 2504726.2797482451424, 2390444.097183795180172 ], [ 2504658.327437994536012, 2390473.220038177911192 ], [ 2504570.960268629249185, 2390492.635139589197934 ], [ 2504551.545207282528281, 2390502.342690294608474 ], [ 2504541.837878840975463, 2390502.342690294608474 ], [ 2504541.837878840975463, 2390512.050241000484675 ], [ 2504551.545207282528281, 2390560.587994528468698 ], [ 2504551.545207282528281, 2390580.003298205789179 ], [ 2504561.252737955655903, 2390589.710848911199719 ], [ 2504561.252737955655903, 2390609.12595032248646 ], [ 2504609.79018909111619, 2390919.768179699778557 ], [ 2504619.497517532669008, 2390978.01368619967252 ], [ 2504658.327437994536012, 2391259.533061194233596 ], [ 2504677.742297109682113, 2391385.731422632932663 ], [ 2504677.742297109682113, 2391414.854277015663683 ], [ 2504706.864686897955835, 2391579.882841276936233 ], [ 2504706.864686897955835, 2391609.005695659667253 ], [ 2504726.2797482451424, 2391744.911607804242522 ], [ 2504735.987278918270022, 2391764.326709215529263 ], [ 2504745.694607359822839, 2391841.987317126244307 ], [ 2504745.694607359822839, 2391880.81751994881779 ], [ 2504755.402138033416122, 2391968.185678565409034 ], [ 2504765.109668707009405, 2391977.893229270819575 ], [ 2504765.109668707009405, 2391997.308330682106316 ], [ 2504765.109668707009405, 2392007.016083653550595 ], [ 2504774.816997148562223, 2392074.96893859282136 ], [ 2504784.524527821689844, 2392133.214445092715323 ], [ 2504794.232058495283127, 2392172.044647914823145 ], [ 2504803.939386936835945, 2392239.997705120127648 ], [ 2504803.939386936835945, 2392269.120357237290591 ], [ 2504813.646917610429227, 2392346.780965148005635 ], [ 2504823.354448283556849, 2392395.318718675989658 ], [ 2504833.061776725575328, 2392443.85667447000742 ], [ 2504842.769307398702949, 2392540.932383792009205 ], [ 2504852.476838072296232, 2392570.055035908706486 ], [ 2504842.769307398702949, 2392589.470137319993228 ], [ 2504803.939386936835945, 2392657.423194525297731 ], [ 2504794.232058495283127, 2392667.130745230708271 ], [ 2504784.524527821689844, 2392686.545846641995013 ], [ 2504774.816997148562223, 2392686.545846641995013 ], [ 2504765.109668707009405, 2392715.668498759157956 ], [ 2504726.2797482451424, 2392783.621555963996798 ], [ 2504716.572217571549118, 2392803.036657375283539 ], [ 2504697.157358456403017, 2392832.15951175801456 ], [ 2504668.034968668129295, 2392890.404815991874784 ], [ 2504677.742297109682113, 2392938.942771785892546 ], [ 2504493.300427705515176, 2393269.000102574471384 ], [ 2504337.980948089621961, 2393560.227230540476739 ], [ 2504202.076529820915312, 2393802.916402712929994 ], [ 2504172.95414003264159, 2393851.454156240914017 ], [ 2503706.995701185427606, 2394705.720438728109002 ], [ 2503697.288170511834323, 2394705.720438728109002 ], [ 2503677.873311396688223, 2394744.550641550682485 ], [ 2503464.309052204247564, 2395142.561029544565827 ], [ 2503454.601521530654281, 2395152.268580249976367 ], [ 2503454.601521530654281, 2395161.976130955852568 ], [ 2503376.941680606920272, 2395297.882245365995914 ], [ 2503318.696901030372828, 2395414.37305609928444 ], [ 2503279.866980568505824, 2395521.156316127162427 ], [ 2503250.74459077976644, 2395608.52447474328801 ], [ 2503241.037262338213623, 2395647.354677565861493 ], [ 2503221.622200991492718, 2395744.430386887863278 ], [ 2503211.914872549939901, 2395792.968140415847301 ], [ 2503202.207341876346618, 2395851.213646915741265 ], [ 2503182.792482761200517, 2395851.213646915741265 ], [ 2503192.499811202753335, 2395928.874254826456308 ], [ 2503192.499811202753335, 2396025.949964148458093 ], [ 2503192.499811202753335, 2396035.657514854334295 ], [ 2503192.499811202753335, 2396152.14832558715716 ], [ 2503202.207341876346618, 2396190.978528409730643 ], [ 2503192.499811202753335, 2396200.686079115606844 ], [ 2503192.499811202753335, 2396210.393629821017385 ], [ 2503182.792482761200517, 2396229.808933498337865 ], [ 2503114.840172511059791, 2396356.007294937036932 ], [ 2503095.425111164338887, 2396375.422396348323673 ], [ 2503085.717782722320408, 2396394.837497759610415 ], [ 2503027.473003145772964, 2396443.375453553628176 ], [ 2503027.473003145772964, 2396453.083004259038717 ], [ 2503017.765472472179681, 2396462.790554964914918 ], [ 2503046.887862260453403, 2396453.083004259038717 ], [ 2503076.010252049192786, 2396453.083004259038717 ], [ 2503085.717782722320408, 2396453.083004259038717 ], [ 2503124.547500952612609, 2396443.375453553628176 ], [ 2503192.499811202753335, 2396433.667902847751975 ], [ 2503231.32973166462034, 2396423.960352142341435 ], [ 2503250.74459077976644, 2396423.960352142341435 ], [ 2503260.452121453359723, 2396423.960352142341435 ], [ 2503289.574511241633445, 2396423.960352142341435 ], [ 2503338.111962377093732, 2396414.252599170897156 ], [ 2503386.649211280513555, 2396404.545048465020955 ], [ 2503425.479131742380559, 2396394.837497759610415 ], [ 2503483.723911319393665, 2396394.837497759610415 ], [ 2503512.846301107667387, 2396385.129947053734213 ], [ 2503580.798611358273774, 2396375.422396348323673 ], [ 2503639.043390934821218, 2396365.714845642913133 ], [ 2503774.948011435568333, 2396346.299744231626391 ], [ 2503794.362870550714433, 2396336.59219352575019 ], [ 2503823.485260338988155, 2396336.59219352575019 ], [ 2503930.267288819421083, 2396317.176889848895371 ], [ 2503959.38988083973527, 2396317.176889848895371 ], [ 2503978.80473995488137, 2396317.176889848895371 ], [ 2504046.757050205022097, 2396307.46933914301917 ], [ 2504066.171909320168197, 2396297.761788437608629 ], [ 2504114.709360455628484, 2396297.761788437608629 ], [ 2504153.539078685455024, 2396288.054237731732428 ], [ 2504250.613778724335134, 2396268.639136320445687 ], [ 2504270.028840071056038, 2396268.639136320445687 ], [ 2504318.566088974941522, 2396258.931585615035146 ], [ 2504415.64078901335597, 2396249.224034909624606 ], [ 2504522.422817493788898, 2396229.808933498337865 ], [ 2504600.082658417522907, 2396220.101382792461663 ], [ 2504823.354448283556849, 2396181.270977704320103 ], [ 2504852.476838072296232, 2396171.563426998443902 ], [ 2504910.721617649309337, 2396161.855876293033361 ], [ 2504939.844007437583059, 2396152.14832558715716 ], [ 2504949.551538111176342, 2396152.14832558715716 ], [ 2504988.381256341002882, 2396142.44077488174662 ], [ 2505085.455956379882991, 2396123.025673470459878 ], [ 2505172.823125745169818, 2396113.317920499015599 ], [ 2505221.360576880630106, 2396103.610369793605059 ], [ 2505299.02021557232365, 2396093.902819087728858 ], [ 2505328.142605361063033, 2396084.195268382318318 ], [ 2505366.972525822930038, 2396084.195268382318318 ], [ 2505396.09491561120376, 2396074.487717676442116 ], [ 2505415.509976958390325, 2396074.487717676442116 ], [ 2505483.462084976490587, 2396064.780166971031576 ], [ 2505677.611485054250807, 2396035.657514854334295 ], [ 2505716.441405516117811, 2396025.949964148458093 ], [ 2505774.686185093130916, 2396016.242413443047553 ], [ 2505784.393715766724199, 2396016.242413443047553 ], [ 2505881.468415805138648, 2395996.827109765727073 ], [ 2505939.713195382151753, 2395987.119559060316533 ], [ 2506017.372834074310958, 2395967.704457649029791 ], [ 2506027.08036474743858, 2395967.704457649029791 ], [ 2506036.787895421031862, 2395967.704457649029791 ], [ 2506085.325144324451685, 2395967.704457649029791 ], [ 2506124.15506478631869, 2395967.704457649029791 ], [ 2506221.229764825198799, 2395957.99690694315359 ], [ 2506250.352154613472521, 2395957.99690694315359 ], [ 2506260.059483055491, 2395957.99690694315359 ], [ 2506405.671634229365736, 2395928.874254826456308 ], [ 2506454.208883132785559, 2395919.166704121045768 ], [ 2506473.623742247931659, 2395919.166704121045768 ], [ 2506658.065611652098596, 2395890.043849737849087 ], [ 2506745.432983249425888, 2395880.336299032438546 ], [ 2507007.534491345286369, 2395822.090994798578322 ], [ 2507007.534491345286369, 2395841.506096209865063 ], [ 2507017.242022018879652, 2395938.581805531866848 ], [ 2507026.949552692007273, 2396006.534660471137613 ], [ 2507094.901660710573196, 2396462.790554964914918 ], [ 2507114.316722057759762, 2396559.866264286916703 ], [ 2507124.02405049931258, 2396618.111568520311266 ], [ 2507124.02405049931258, 2396647.234422903042287 ], [ 2507133.731581172440201, 2396744.310132225509733 ], [ 2507143.439111846033484, 2396773.432784342207015 ], [ 2507153.146642519626766, 2396831.678088575601578 ], [ 2507162.853970961179584, 2396899.631145780906081 ], [ 2507162.853970961179584, 2396919.046247192192823 ], [ 2507182.269032307900488, 2397006.414405808784068 ], [ 2507191.976360749453306, 2397093.782564425375313 ], [ 2507201.683891423046589, 2397181.150723041500896 ], [ 2507221.098750538192689, 2397268.518881658092141 ], [ 2507230.806281211320311, 2397365.594590980093926 ], [ 2507250.221140326466411, 2397452.962749596685171 ] ] } }
]
}
