{
"type": "FeatureCollection",
"name": "fdp",
"crs": { "type": "name", "properties": { "name": "urn:ogc:def:crs:EPSG::3111" } },
"features": [
{ "type": "Feature", "properties": { }, "geometry": { "type": "MultiLineString", "coordinates": [ [ [ 2705009.372166829183698, 2516379.795313811395317 ], [ 2705025.830751915462315, 2516367.451082815881819 ], [ 2705054.633570791687816, 2516334.533719680737704 ], [ 2705083.436169197317213, 2516313.960057178512216 ], [ 2705128.69743842119351, 2516281.042249412741512 ], [ 2705210.990527132060379, 2516235.77984776115045 ], [ 2705243.907648298423737, 2516223.435343601275235 ], [ 2705280.939647436141968, 2516194.632339316885918 ], [ 2705317.971466922666878, 2516182.287745431065559 ], [ 2705359.117854083422571, 2516174.057600120082498 ], [ 2705383.805570425000042, 2516178.171685806941241 ], [ 2705424.951733022462577, 2516190.514574927743524 ], [ 2705449.639449363574386, 2516194.628660614602268 ], [ 2705461.983197298832238, 2516202.857553774956614 ], [ 2705461.983017647638917, 2516219.315964173059911 ], [ 2705445.524212089832872, 2516244.003981536254287 ], [ 2705441.409285113681108, 2516272.806268024258316 ], [ 2705445.523628224618733, 2516297.493751030880958 ], [ 2705453.752624742221087, 2516326.295768344774842 ], [ 2705470.210801520850509, 2516359.212230243720114 ], [ 2705486.669027303811163, 2516379.78490577917546 ] ], [ [ 2705972.195198685396463, 2516379.774318296927959 ], [ 2705976.309941919054836, 2516375.659604537766427 ], [ 2706013.341945149004459, 2516338.627352189272642 ], [ 2706042.144719113595784, 2516309.824527353048325 ], [ 2706128.552289763931185, 2516268.676660011988133 ], [ 2706169.698856575414538, 2516243.988190037198365 ], [ 2706198.501450889278203, 2516231.643689865712076 ], [ 2706280.794184389524162, 2516211.06894668051973 ], [ 2706346.628332805354148, 2516202.838263023644686 ], [ 2706379.545539705082774, 2516190.493758861441165 ], [ 2706408.348003371618688, 2516182.263968458864838 ], [ 2706441.264985708054155, 2516190.492412994615734 ], [ 2706502.984435802325606, 2516182.261904797516763 ], [ 2706626.423417633399367, 2516174.029964997433126 ], [ 2706684.028206136543304, 2516178.143332887906581 ], [ 2706725.174413647036999, 2516186.371597975958139 ], [ 2706762.205833010841161, 2516202.829200856387615 ], [ 2706786.893369700759649, 2516223.401696941349655 ], [ 2706807.466203979216516, 2516252.203445082996041 ], [ 2706840.382737187668681, 2516301.577958482317626 ], [ 2706869.184392424765974, 2516367.410886272322387 ], [ 2706873.298870272468776, 2516379.754668647423387 ] ], [ [ 2707400.030803489498794, 2510932.011399618349969 ], [ 2707338.311806614045054, 2510890.866762355901301 ], [ 2706852.790351072791964, 2510458.844226910732687 ], [ 2706692.321387086529285, 2510318.951280641835183 ], [ 2706531.852198536042124, 2510199.631368805188686 ], [ 2706313.778356220107526, 2510063.854302712716162 ], [ 2706132.73579443898052, 2509965.107788195367903 ], [ 2705931.120488204527646, 2509829.330363204702735 ] ], [ [ 2701293.870416616089642, 2515655.706534635741264 ], [ 2701285.646670799236745, 2515153.725411263294518 ], [ 2701170.436959054786712, 2515157.84246184816584 ], [ 2700865.954468181822449, 2515161.963725487235934 ], [ 2700824.808170846663415, 2515161.964622731786221 ], [ 2700787.776486098300666, 2515161.965430252254009 ], [ 2700771.317770366091281, 2515178.424199549015611 ], [ 2700680.79729790519923, 2515054.988138364162296 ], [ 2700598.504613408818841, 2515063.219180919229984 ], [ 2700528.556256622541696, 2515034.418423736467957 ], [ 2700520.326941622886807, 2515042.647851251065731 ], [ 2700491.524612694513053, 2515038.533855288289487 ], [ 2700454.492972859181464, 2515034.420038775075227 ], [ 2700438.03452660376206, 2515026.191235341131687 ], [ 2700421.576304912101477, 2514997.389397475402802 ], [ 2700425.69113797089085, 2514985.045521383639425 ], [ 2700326.940456347540021, 2514943.901605907827616 ], [ 2700211.730291382875293, 2514997.393973420374095 ], [ 2700236.419804235454649, 2514836.923955121543258 ], [ 2700232.306808508001268, 2514688.798436992801726 ], [ 2700314.599448091350496, 2514684.682018470484763 ], [ 2700442.154932936653495, 2514495.407646032050252 ], [ 2700479.187740504741669, 2514392.541752087883651 ], [ 2700401.010701589286327, 2514306.136866560671479 ], [ 2700401.011824408080429, 2514203.271865870337933 ], [ 2700306.375706366728991, 2514174.471647033467889 ], [ 2700302.26203694799915, 2514088.065146465785801 ], [ 2700232.313814898952842, 2514046.920688651502132 ], [ 2700232.314129288308322, 2514018.118491887580603 ], [ 2700182.93860677909106, 2514018.119568580295891 ], [ 2700150.02315147779882, 2513869.994592789560556 ], [ 2700141.793926304206252, 2513869.994772237725556 ], [ 2700088.303885126020759, 2513853.53752825781703 ], [ 2700030.700080611277372, 2513767.132194106932729 ], [ 2699948.408249457366765, 2513697.185808702837676 ], [ 2699862.002659060526639, 2513549.061999328434467 ], [ 2699792.056952125858516, 2513277.499881668481976 ], [ 2699849.662642976269126, 2513191.092035235837102 ], [ 2699903.155558571219444, 2512944.214798572938889 ], [ 2699857.896984112914652, 2512730.256536094471812 ], [ 2700121.233308297581971, 2512722.021545665338635 ], [ 2700228.21397861186415, 2512693.217016065493226 ], [ 2700257.016262626741081, 2512701.445636061485857 ], [ 2700211.755891658365726, 2512652.07139183441177 ], [ 2700376.342791776638478, 2512487.483698872849345 ], [ 2700331.081926766782999, 2512483.370147542096674 ], [ 2700232.330208058003336, 2512545.091318488586694 ], [ 2699989.568379924632609, 2512429.88773944042623 ], [ 2699977.22459116904065, 2512417.544222249183804 ], [ 2699964.880933059379458, 2512401.086081022862345 ], [ 2699960.766324563883245, 2512392.857008416205645 ], [ 2699952.537413779646158, 2512364.054991100449115 ], [ 2699944.308278432115912, 2512355.825922482647002 ], [ 2699927.849697438534349, 2512359.940905413590372 ], [ 2699899.047099033836275, 2512380.51448218151927 ], [ 2699866.129847221076488, 2512396.973610376473516 ], [ 2699837.327428466640413, 2512401.088862480130047 ], [ 2699812.639667212497443, 2512401.08940082648769 ], [ 2699792.066608369816095, 2512392.860687116160989 ], [ 2699779.722864527255297, 2512376.402545891702175 ], [ 2699775.608521417714655, 2512351.714977151248604 ], [ 2699783.838060980662704, 2512322.912600939162076 ], [ 2699779.723493306897581, 2512318.798066630028188 ], [ 2699771.494313045404851, 2512314.683707778807729 ], [ 2699755.035776964388788, 2512314.684066677000374 ], [ 2699730.347925885114819, 2512322.913767355959862 ], [ 2699693.316241136286408, 2512322.91457487642765 ], [ 2699676.857880614232272, 2512314.685771440155804 ], [ 2699660.399479271378368, 2512302.342343972995877 ], [ 2699643.941077929455787, 2512289.998830772005022 ], [ 2699631.597285081166774, 2512285.884561644867063 ], [ 2699680.973346543498337, 2512236.508253756444901 ], [ 2699779.727400716394186, 2511960.827833362855017 ], [ 2699713.893791254144162, 2511919.683285824488848 ], [ 2699693.320732412394136, 2511911.45448638079688 ], [ 2699656.288594444282353, 2511960.830525094643235 ], [ 2699339.464250157121569, 2511767.451133127789944 ], [ 2699952.554750107228756, 2510775.818944911938161 ], [ 2700075.995842838659883, 2510574.200790096540004 ], [ 2700215.893319929484278, 2510561.853953101206571 ], [ 2700289.956693517975509, 2510553.623175729997456 ], [ 2701071.736979850102216, 2510479.543238427955657 ], [ 2701614.86704147933051, 2510565.938070828095078 ], [ 2701635.439969675149769, 2510578.281408573500812 ], [ 2701709.502755305264145, 2510631.769648761488497 ], [ 2701808.252991893794388, 2510705.830299302469939 ], [ 2701960.493000183720142, 2510821.035766554065049 ], [ 2702458.359142735600471, 2511183.109852931462228 ], [ 2703112.586238864343613, 2511080.230500322766602 ], [ 2703157.847418263088912, 2511055.541940623428673 ], [ 2703170.191750064026564, 2511010.281064288690686 ], [ 2703198.994258643127978, 2510997.936649852897972 ], [ 2703240.139882286544889, 2511059.654770169407129 ], [ 2703466.444921845570207, 2511022.618390494491905 ], [ 2703544.622952933888882, 2511010.272899365983903 ], [ 2703622.800620628055185, 2511039.073391364887357 ], [ 2703626.913975657895207, 2511154.282088696490973 ], [ 2703738.008045914117247, 2511236.571718129795045 ], [ 2703758.581059843767434, 2511248.915055872872472 ], [ 2703787.383298946544528, 2511261.258214167784899 ], [ 2703795.612564940936863, 2511265.372658750973642 ], [ 2703803.841835027560592, 2511261.257855269592255 ], [ 2703824.415118433535099, 2511248.91362028196454 ], [ 2703857.332194686401635, 2511240.683740155305713 ], [ 2703910.822550253942609, 2511228.33878737129271 ], [ 2703956.083325437735766, 2511240.681586768478155 ], [ 2703989.000222040805966, 2511248.910031306091696 ], [ 2704001.344010796397924, 2511261.253548497334123 ], [ 2704021.916979813016951, 2511277.711510273627937 ], [ 2704042.489903916139156, 2511298.284096083138138 ], [ 2704071.292098106816411, 2511314.741878411266953 ], [ 2704087.750499449204654, 2511327.08530587842688 ], [ 2704108.32346846582368, 2511343.543267654720694 ], [ 2704145.354798004031181, 2511368.230032866820693 ], [ 2704161.813648474402726, 2511339.42747720470652 ], [ 2704244.10579401627183, 2511380.571751578710973 ], [ 2704223.532286046538502, 2511413.489020998124033 ], [ 2704248.219912562984973, 2511425.832269017584622 ], [ 2704248.219867650885135, 2511429.946807316504419 ], [ 2704293.48064283374697, 2511442.289692447055131 ], [ 2704326.397580257616937, 2511454.632761016488075 ], [ 2704338.741283279843628, 2511466.976278209593147 ], [ 2704330.51187845505774, 2511483.434868056327105 ], [ 2704330.511653890833259, 2511504.007902487646788 ], [ 2704285.25011519016698, 2511561.613282984588295 ], [ 2704272.906056958250701, 2511573.957338524051011 ], [ 2704264.676741958595812, 2511582.186766038183123 ], [ 2704244.103458552621305, 2511594.531001025810838 ], [ 2704227.644877559971064, 2511598.64589822338894 ], [ 2704202.957026479300112, 2511606.875684636179358 ], [ 2704170.039950226433575, 2511615.105564762838185 ], [ 2704153.58132431935519, 2511623.335171727463603 ], [ 2704170.039725662209094, 2511635.67859919462353 ], [ 2704202.956352788023651, 2511668.594702197238803 ], [ 2704351.081479013897479, 2511808.487917637452483 ], [ 2704330.508105783257633, 2511829.061314957682043 ], [ 2704314.049345138017088, 2511849.634708287660033 ], [ 2704244.10004518320784, 2511907.240627130493522 ], [ 2704174.151014704722911, 2511940.158973242621869 ], [ 2704112.430984835606068, 2511993.6501743379049 ], [ 2704095.971550499554724, 2512075.942499495111406 ], [ 2704120.658233847469091, 2512174.692423539701849 ], [ 2704157.68879577703774, 2512277.556616710033268 ], [ 2704186.489912060555071, 2512392.764861429110169 ], [ 2704194.718639102298766, 2512446.254451474174857 ], [ 2704141.227250541094691, 2512553.235242616385221 ], [ 2704132.997666065115482, 2512586.152242861222476 ], [ 2704128.882739088963717, 2512614.954529349692166 ], [ 2704046.58951564040035, 2512672.560717366635799 ], [ 2704005.442275136709213, 2512758.968290636781603 ], [ 2703976.638733563479036, 2512865.948543430771679 ], [ 2703923.147973780985922, 2512915.324941045138985 ], [ 2703828.511406612116843, 2512927.670791071373969 ], [ 2703705.072469693142921, 2512931.78810683824122 ], [ 2703593.97709696739912, 2512968.821888493839651 ], [ 2703482.88199371797964, 2512981.168097419198602 ], [ 2703404.703648239374161, 2513022.315871045459062 ], [ 2703371.786441339645535, 2513034.660375207196921 ], [ 2703342.984292062465101, 2513014.087968845851719 ], [ 2703293.6087695537135, 2513014.089045538101345 ], [ 2703157.824737317860126, 2513133.415417533367872 ], [ 2703063.187320897821337, 2513215.709533188957721 ], [ 2702985.008077164646238, 2513339.149273074232042 ], [ 2702976.778541693463922, 2513359.722486956045032 ], [ 2702947.975269597489387, 2513442.015081285033375 ], [ 2702919.172177151311189, 2513507.849350949749351 ], [ 2702902.712293687742203, 2513631.287744970060885 ], [ 2702906.826008019037545, 2513713.579707238823175 ], [ 2702919.169212909415364, 2513779.412993924692273 ], [ 2702919.168494304642081, 2513845.246635518968105 ], [ 2702882.136046039871871, 2513915.195622932631522 ], [ 2702865.676971005741507, 2513964.571213026531041 ], [ 2702820.415207741316408, 2514042.749627954792231 ], [ 2702812.185219051316381, 2514112.69798729615286 ], [ 2702799.840487126260996, 2514186.761146130971611 ], [ 2702762.808304246049374, 2514240.251723144203424 ], [ 2702734.00512606697157, 2514306.085992810316384 ], [ 2702742.233628544490784, 2514380.148617286700755 ], [ 2702754.576568049378693, 2514462.440400107763708 ], [ 2702766.91918907314539, 2514581.763542022556067 ], [ 2702754.57481645187363, 2514622.909794325940311 ], [ 2702676.396560799796134, 2514655.828319885767996 ], [ 2702614.677114797290415, 2514655.829665752593428 ], [ 2702528.269862626679242, 2514659.94617399899289 ], [ 2702483.008009537123144, 2514746.353751259390265 ], [ 2702437.745572580955923, 2514886.251183748710901 ], [ 2702355.451855091843754, 2514989.117978928145021 ], [ 2702281.387762897647917, 2515063.182483627460897 ], [ 2702248.469792481511831, 2515145.475167682860047 ], [ 2702219.666430559474975, 2515235.997010078281164 ], [ 2701400.849604808725417, 2515762.683826523832977 ], [ 2701293.870416616089642, 2515655.706534635741264 ] ] ] } },
{ "type": "Feature", "properties": { }, "geometry": { "type": "MultiLineString", "coordinates": [ [ [ 2705931.120488204527646, 2509829.330363204702735 ], [ 2706132.73579443898052, 2509965.107788195367903 ], [ 2706313.778356220107526, 2510063.854302712716162 ], [ 2706531.852198536042124, 2510199.631368805188686 ], [ 2706692.321387086529285, 2510318.951280641835183 ], [ 2706852.790351072791964, 2510458.844226910732687 ], [ 2707338.311806614045054, 2510890.866762355901301 ], [ 2707400.030803489498794, 2510932.011399618349969 ] ], [ [ 2706873.298870272468776, 2516379.754668647423387 ], [ 2706869.184392424765974, 2516367.410886272322387 ], [ 2706840.382737187668681, 2516301.577958482317626 ], [ 2706807.466203979216516, 2516252.203445082996041 ], [ 2706786.893369700759649, 2516223.401696941349655 ], [ 2706762.205833010841161, 2516202.829200856387615 ], [ 2706725.174413647036999, 2516186.371597975958139 ], [ 2706684.028206136543304, 2516178.143332887906581 ], [ 2706626.423417633399367, 2516174.029964997433126 ], [ 2706502.984435802325606, 2516182.261904797516763 ], [ 2706441.264985708054155, 2516190.492412994615734 ], [ 2706408.348003371618688, 2516182.263968458864838 ], [ 2706379.545539705082774, 2516190.493758861441165 ], [ 2706346.628332805354148, 2516202.838263023644686 ], [ 2706280.794184389524162, 2516211.06894668051973 ], [ 2706198.501450889278203, 2516231.643689865712076 ], [ 2706169.698856575414538, 2516243.988190037198365 ], [ 2706128.552289763931185, 2516268.676660011988133 ], [ 2706042.144719113595784, 2516309.824527353048325 ], [ 2706013.341945149004459, 2516338.627352189272642 ], [ 2705976.309941919054836, 2516375.659604537766427 ], [ 2705972.195198685396463, 2516379.774318296927959 ] ], [ [ 2705486.669027303811163, 2516379.78490577917546 ], [ 2705470.210801520850509, 2516359.212230243720114 ], [ 2705453.752624742221087, 2516326.295768344774842 ], [ 2705445.523628224618733, 2516297.493751030880958 ], [ 2705441.409285113681108, 2516272.806268024258316 ], [ 2705445.524212089832872, 2516244.003981536254287 ], [ 2705461.983017647638917, 2516219.315964173059911 ], [ 2705461.983197298832238, 2516202.857553774956614 ], [ 2705449.639449363574386, 2516194.628660614602268 ], [ 2705424.951733022462577, 2516190.514574927743524 ], [ 2705383.805570425000042, 2516178.171685806941241 ], [ 2705359.117854083422571, 2516174.057600120082498 ], [ 2705317.971466922666878, 2516182.287745431065559 ], [ 2705280.939647436141968, 2516194.632339316885918 ], [ 2705243.907648298423737, 2516223.435343601275235 ], [ 2705210.990527132060379, 2516235.77984776115045 ], [ 2705128.69743842119351, 2516281.042249412741512 ], [ 2705083.436169197317213, 2516313.960057178512216 ], [ 2705054.633570791687816, 2516334.533719680737704 ], [ 2705025.830751915462315, 2516367.451082815881819 ], [ 2705009.372166829183698, 2516379.795313811395317 ], [ 2705009.372166829183698, 2516379.795313811395317 ] ] ] } },
{ "type": "Feature", "properties": { }, "geometry": { "type": "LineString", "coordinates": [ [ 2701293.870416616089642, 2515655.706534635741264 ], [ 2701400.849604808725417, 2515762.683826523832977 ], [ 2702219.666430559474975, 2515235.997010078281164 ], [ 2702248.469792481511831, 2515145.475167682860047 ], [ 2702281.387762897647917, 2515063.182483627460897 ], [ 2702355.451855091843754, 2514989.117978928145021 ], [ 2702437.745572580955923, 2514886.251183748710901 ], [ 2702483.008009537123144, 2514746.353751259390265 ], [ 2702528.269862626679242, 2514659.94617399899289 ], [ 2702614.677114797290415, 2514655.829665752593428 ], [ 2702676.396560799796134, 2514655.828319885767996 ], [ 2702754.57481645187363, 2514622.909794325940311 ], [ 2702766.91918907314539, 2514581.763542022556067 ], [ 2702754.576568049378693, 2514462.440400107763708 ], [ 2702742.233628544490784, 2514380.148617286700755 ], [ 2702734.00512606697157, 2514306.085992810316384 ], [ 2702762.808304246049374, 2514240.251723144203424 ], [ 2702799.840487126260996, 2514186.761146130971611 ], [ 2702812.185219051316381, 2514112.69798729615286 ], [ 2702820.415207741316408, 2514042.749627954792231 ], [ 2702865.676971005741507, 2513964.571213026531041 ], [ 2702882.136046039871871, 2513915.195622932631522 ], [ 2702919.168494304642081, 2513845.246635518968105 ], [ 2702919.169212909415364, 2513779.412993924692273 ], [ 2702906.826008019037545, 2513713.579707238823175 ], [ 2702902.712293687742203, 2513631.287744970060885 ], [ 2702919.172177151311189, 2513507.849350949749351 ], [ 2702947.975269597489387, 2513442.015081285033375 ], [ 2702976.778541693463922, 2513359.722486956045032 ], [ 2702985.008077164646238, 2513339.149273074232042 ], [ 2703063.187320897821337, 2513215.709533188957721 ], [ 2703157.824737317860126, 2513133.415417533367872 ], [ 2703293.6087695537135, 2513014.089045538101345 ], [ 2703342.984292062465101, 2513014.087968845851719 ], [ 2703371.786441339645535, 2513034.660375207196921 ], [ 2703404.703648239374161, 2513022.315871045459062 ], [ 2703482.88199371797964, 2512981.168097419198602 ], [ 2703593.97709696739912, 2512968.821888493839651 ], [ 2703705.072469693142921, 2512931.78810683824122 ], [ 2703828.511406612116843, 2512927.670791071373969 ], [ 2703923.147973780985922, 2512915.324941045138985 ], [ 2703976.638733563479036, 2512865.948543430771679 ], [ 2704005.442275136709213, 2512758.968290636781603 ], [ 2704046.58951564040035, 2512672.560717366635799 ], [ 2704128.882739088963717, 2512614.954529349692166 ], [ 2704132.997666065115482, 2512586.152242861222476 ], [ 2704141.227250541094691, 2512553.235242616385221 ], [ 2704194.718639102298766, 2512446.254451474174857 ], [ 2704186.489912060555071, 2512392.764861429110169 ], [ 2704157.68879577703774, 2512277.556616710033268 ], [ 2704120.658233847469091, 2512174.692423539701849 ], [ 2704095.971550499554724, 2512075.942499495111406 ], [ 2704112.430984835606068, 2511993.6501743379049 ], [ 2704174.151014704722911, 2511940.158973242621869 ], [ 2704244.10004518320784, 2511907.240627130493522 ], [ 2704314.049345138017088, 2511849.634708287660033 ], [ 2704330.508105783257633, 2511829.061314957682043 ], [ 2704351.081479013897479, 2511808.487917637452483 ], [ 2704202.956352788023651, 2511668.594702197238803 ], [ 2704170.039725662209094, 2511635.67859919462353 ], [ 2704153.58132431935519, 2511623.335171727463603 ], [ 2704170.039950226433575, 2511615.105564762838185 ], [ 2704202.957026479300112, 2511606.875684636179358 ], [ 2704227.644877559971064, 2511598.64589822338894 ], [ 2704244.103458552621305, 2511594.531001025810838 ], [ 2704264.676741958595812, 2511582.186766038183123 ], [ 2704272.906056958250701, 2511573.957338524051011 ], [ 2704285.25011519016698, 2511561.613282984588295 ], [ 2704330.511653890833259, 2511504.007902487646788 ], [ 2704330.51187845505774, 2511483.434868056327105 ], [ 2704338.741283279843628, 2511466.976278209593147 ], [ 2704326.397580257616937, 2511454.632761016488075 ], [ 2704293.48064283374697, 2511442.289692447055131 ], [ 2704248.219867650885135, 2511429.946807316504419 ], [ 2704248.219912562984973, 2511425.832269017584622 ], [ 2704223.532286046538502, 2511413.489020998124033 ], [ 2704244.10579401627183, 2511380.571751578710973 ], [ 2704161.813648474402726, 2511339.42747720470652 ], [ 2704145.354798004031181, 2511368.230032866820693 ], [ 2704108.32346846582368, 2511343.543267654720694 ], [ 2704087.750499449204654, 2511327.08530587842688 ], [ 2704071.292098106816411, 2511314.741878411266953 ], [ 2704042.489903916139156, 2511298.284096083138138 ], [ 2704021.916979813016951, 2511277.711510273627937 ], [ 2704001.344010796397924, 2511261.253548497334123 ], [ 2703989.000222040805966, 2511248.910031306091696 ], [ 2703956.083325437735766, 2511240.681586768478155 ], [ 2703910.822550253942609, 2511228.33878737129271 ], [ 2703857.332194686401635, 2511240.683740155305713 ], [ 2703824.415118433535099, 2511248.91362028196454 ], [ 2703803.841835027560592, 2511261.257855269592255 ], [ 2703795.612564940936863, 2511265.372658750973642 ], [ 2703787.383298946544528, 2511261.258214167784899 ], [ 2703758.581059843767434, 2511248.915055872872472 ], [ 2703738.008045914117247, 2511236.571718129795045 ], [ 2703626.913975657895207, 2511154.282088696490973 ], [ 2703622.800620628055185, 2511039.073391364887357 ], [ 2703544.622952933888882, 2511010.272899365983903 ], [ 2703466.444921845570207, 2511022.618390494491905 ], [ 2703240.139882286544889, 2511059.654770169407129 ], [ 2703198.994258643127978, 2510997.936649852897972 ], [ 2703170.191750064026564, 2511010.281064288690686 ], [ 2703157.847418263088912, 2511055.541940623428673 ], [ 2703112.586238864343613, 2511080.230500322766602 ], [ 2702458.359142735600471, 2511183.109852931462228 ], [ 2701960.493000183720142, 2510821.035766554065049 ], [ 2701808.252991893794388, 2510705.830299302469939 ], [ 2701709.502755305264145, 2510631.769648761488497 ], [ 2701635.439969675149769, 2510578.281408573500812 ], [ 2701614.86704147933051, 2510565.938070828095078 ], [ 2701071.736979850102216, 2510479.543238427955657 ], [ 2700289.956693517975509, 2510553.623175729997456 ], [ 2700215.893319929484278, 2510561.853953101206571 ], [ 2700075.995842838659883, 2510574.200790096540004 ], [ 2699952.554750107228756, 2510775.818944911938161 ], [ 2699339.464250157121569, 2511767.451133127789944 ], [ 2699656.288594444282353, 2511960.830525094643235 ], [ 2699693.320732412394136, 2511911.45448638079688 ], [ 2699713.893791254144162, 2511919.683285824488848 ], [ 2699779.727400716394186, 2511960.827833362855017 ], [ 2699680.973346543498337, 2512236.508253756444901 ], [ 2699631.597285081166774, 2512285.884561644867063 ], [ 2699643.941077929455787, 2512289.998830772005022 ], [ 2699660.399479271378368, 2512302.342343972995877 ], [ 2699676.857880614232272, 2512314.685771440155804 ], [ 2699693.316241136286408, 2512322.91457487642765 ], [ 2699730.347925885114819, 2512322.913767355959862 ], [ 2699755.035776964388788, 2512314.684066677000374 ], [ 2699771.494313045404851, 2512314.683707778807729 ], [ 2699779.723493306897581, 2512318.798066630028188 ], [ 2699783.838060980662704, 2512322.912600939162076 ], [ 2699775.608521417714655, 2512351.714977151248604 ], [ 2699779.722864527255297, 2512376.402545891702175 ], [ 2699792.066608369816095, 2512392.860687116160989 ], [ 2699812.639667212497443, 2512401.08940082648769 ], [ 2699837.327428466640413, 2512401.088862480130047 ], [ 2699866.129847221076488, 2512396.973610376473516 ], [ 2699899.047099033836275, 2512380.51448218151927 ], [ 2699927.849697438534349, 2512359.940905413590372 ], [ 2699944.308278432115912, 2512355.825922482647002 ], [ 2699952.537413779646158, 2512364.054991100449115 ], [ 2699960.766324563883245, 2512392.857008416205645 ], [ 2699964.880933059379458, 2512401.086081022862345 ], [ 2699977.22459116904065, 2512417.544222249183804 ], [ 2699989.568379924632609, 2512429.88773944042623 ], [ 2700232.330208058003336, 2512545.091318488586694 ], [ 2700331.081926766782999, 2512483.370147542096674 ], [ 2700376.342791776638478, 2512487.483698872849345 ], [ 2700211.755891658365726, 2512652.07139183441177 ], [ 2700257.016262626741081, 2512701.445636061485857 ], [ 2700228.21397861186415, 2512693.217016065493226 ], [ 2700121.233308297581971, 2512722.021545665338635 ], [ 2699857.896984112914652, 2512730.256536094471812 ], [ 2699903.155558571219444, 2512944.214798572938889 ], [ 2699849.662642976269126, 2513191.092035235837102 ], [ 2699792.056952125858516, 2513277.499881668481976 ], [ 2699862.002659060526639, 2513549.061999328434467 ], [ 2699948.408249457366765, 2513697.185808702837676 ], [ 2700030.700080611277372, 2513767.132194106932729 ], [ 2700088.303885126020759, 2513853.53752825781703 ], [ 2700141.793926304206252, 2513869.994772237725556 ], [ 2700150.02315147779882, 2513869.994592789560556 ], [ 2700182.93860677909106, 2514018.119568580295891 ], [ 2700232.314129288308322, 2514018.118491887580603 ], [ 2700232.313814898952842, 2514046.920688651502132 ], [ 2700302.26203694799915, 2514088.065146465785801 ], [ 2700306.375706366728991, 2514174.471647033467889 ], [ 2700401.011824408080429, 2514203.271865870337933 ], [ 2700401.010701589286327, 2514306.136866560671479 ], [ 2700479.187740504741669, 2514392.541752087883651 ], [ 2700442.154932936653495, 2514495.407646032050252 ], [ 2700314.599448091350496, 2514684.682018470484763 ], [ 2700232.306808508001268, 2514688.798436992801726 ], [ 2700236.419804235454649, 2514836.923955121543258 ], [ 2700211.730291382875293, 2514997.393973420374095 ], [ 2700326.940456347540021, 2514943.901605907827616 ], [ 2700425.69113797089085, 2514985.045521383639425 ], [ 2700421.576304912101477, 2514997.389397475402802 ], [ 2700438.03452660376206, 2515026.191235341131687 ], [ 2700454.492972859181464, 2515034.420038775075227 ], [ 2700491.524612694513053, 2515038.533855288289487 ], [ 2700520.326941622886807, 2515042.647851251065731 ], [ 2700528.556256622541696, 2515034.418423736467957 ], [ 2700598.504613408818841, 2515063.219180919229984 ], [ 2700680.79729790519923, 2515054.988138364162296 ], [ 2700771.317770366091281, 2515178.424199549015611 ], [ 2700787.776486098300666, 2515161.965430252254009 ], [ 2700824.808170846663415, 2515161.964622731786221 ], [ 2700865.954468181822449, 2515161.963725487235934 ], [ 2701170.436959054786712, 2515157.84246184816584 ], [ 2701285.646670799236745, 2515153.725411263294518 ], [ 2701293.870416616089642, 2515655.706534635741264 ] ] } }
]
}
